G20
G90
(=== AIRFRAME CONTINUOUS HELICAL WIND ===)
(Starts=1, Passes=10)
(START 1/1)
G01 X0.0333 Z0.0192 F30
G01 X0.0667 Z0.0385 F30
G01 X0.1 Z0.0577 F30
G01 X0.1333 Z0.077 F30
G01 X0.1667 Z0.0962 F30
G01 X0.2 Z0.1155 F30
G01 X0.2333 Z0.1347 F30
G01 X0.2667 Z0.154 F30
G01 X0.3 Z0.1732 F30
G01 X0.3333 Z0.1925 F30
G01 X0.3667 Z0.2117 F30
G01 X0.4 Z0.2309 F30
G01 X0.4333 Z0.2502 F30
G01 X0.4667 Z0.2694 F30
G01 X0.5 Z0.2887 F30
G01 X0.5333 Z0.3079 F30
G01 X0.5667 Z0.3272 F30
G01 X0.6 Z0.3464 F30
G01 X0.6333 Z0.3657 F30
G01 X0.6667 Z0.3849 F30
G01 X0.7 Z0.4041 F30
G01 X0.7333 Z0.4234 F30
G01 X0.7667 Z0.4426 F30
G01 X0.8 Z0.4619 F30
G01 X0.8333 Z0.4811 F30
G01 X0.8667 Z0.5004 F30
G01 X0.9 Z0.5196 F30
G01 X0.9333 Z0.5389 F30
G01 X0.9667 Z0.5581 F30
G01 X1.0 Z0.5774 F30
G01 X1.0333 Z0.5966 F30
G01 X1.0667 Z0.6158 F30
G01 X1.1 Z0.6351 F30
G01 X1.1333 Z0.6543 F30
G01 X1.1667 Z0.6736 F30
G01 X1.2 Z0.6928 F30
G01 X1.2333 Z0.7121 F30
G01 X1.2667 Z0.7313 F30
G01 X1.3 Z0.7506 F30
G01 X1.3333 Z0.7698 F30
G01 X1.3667 Z0.789 F30
G01 X1.4 Z0.8083 F30
G01 X1.4333 Z0.8275 F30
G01 X1.4667 Z0.8468 F30
G01 X1.5 Z0.866 F30
G01 X1.5333 Z0.8853 F30
G01 X1.5667 Z0.9045 F30
G01 X1.6 Z0.9238 F30
G01 X1.6333 Z0.943 F30
G01 X1.6667 Z0.9623 F30
G01 X1.7 Z0.9815 F30
G01 X1.7333 Z1.0007 F30
G01 X1.7667 Z1.02 F30
G01 X1.8 Z1.0392 F30
G01 X1.8333 Z1.0585 F30
G01 X1.8667 Z1.0777 F30
G01 X1.9 Z1.097 F30
G01 X1.9333 Z1.1162 F30
G01 X1.9667 Z1.1355 F30
G01 X2.0 Z1.1547 F30
G01 X2.0333 Z1.1739 F30
G01 X2.0667 Z1.1932 F30
G01 X2.1 Z1.2124 F30
G01 X2.1333 Z1.2317 F30
G01 X2.1667 Z1.2509 F30
G01 X2.2 Z1.2702 F30
G01 X2.2333 Z1.2894 F30
G01 X2.2667 Z1.3087 F30
G01 X2.3 Z1.3279 F30
G01 X2.3333 Z1.3472 F30
G01 X2.3667 Z1.3664 F30
G01 X2.4 Z1.3856 F30
G01 X2.4333 Z1.4049 F30
G01 X2.4667 Z1.4241 F30
G01 X2.5 Z1.4434 F30
G01 X2.5333 Z1.4626 F30
G01 X2.5667 Z1.4819 F30
G01 X2.6 Z1.5011 F30
G01 X2.6333 Z1.5204 F30
G01 X2.6667 Z1.5396 F30
G01 X2.7 Z1.5588 F30
G01 X2.7333 Z1.5781 F30
G01 X2.7667 Z1.5973 F30
G01 X2.8 Z1.6166 F30
G01 X2.8333 Z1.6358 F30
G01 X2.8667 Z1.6551 F30
G01 X2.9 Z1.6743 F30
G01 X2.9333 Z1.6936 F30
G01 X2.9667 Z1.7128 F30
G01 X3.0 Z1.7321 F30
G01 X3.0333 Z1.7513 F30
G01 X3.0667 Z1.7705 F30
G01 X3.1 Z1.7898 F30
G01 X3.1333 Z1.809 F30
G01 X3.1667 Z1.8283 F30
G01 X3.2 Z1.8475 F30
G01 X3.2333 Z1.8668 F30
G01 X3.2667 Z1.886 F30
G01 X3.3 Z1.9053 F30
G01 X3.3333 Z1.9245 F30
G01 X3.3667 Z1.9437 F30
G01 X3.4 Z1.963 F30
G01 X3.4333 Z1.9822 F30
G01 X3.4667 Z2.0015 F30
G01 X3.5 Z2.0207 F30
G01 X3.5333 Z2.04 F30
G01 X3.5667 Z2.0592 F30
G01 X3.6 Z2.0785 F30
G01 X3.6333 Z2.0977 F30
G01 X3.6667 Z2.117 F30
G01 X3.7 Z2.1362 F30
G01 X3.7333 Z2.1554 F30
G01 X3.7667 Z2.1747 F30
G01 X3.8 Z2.1939 F30
G01 X3.8333 Z2.2132 F30
G01 X3.8667 Z2.2324 F30
G01 X3.9 Z2.2517 F30
G01 X3.9333 Z2.2709 F30
G01 X3.9667 Z2.2902 F30
G01 X4.0 Z2.3094 F30
G01 X4.0333 Z2.3286 F30
G01 X4.0667 Z2.3479 F30
G01 X4.1 Z2.3671 F30
G01 X4.1333 Z2.3864 F30
G01 X4.1667 Z2.4056 F30
G01 X4.2 Z2.4249 F30
G01 X4.2333 Z2.4441 F30
G01 X4.2667 Z2.4634 F30
G01 X4.3 Z2.4826 F30
G01 X4.3333 Z2.5019 F30
G01 X4.3667 Z2.5211 F30
G01 X4.4 Z2.5403 F30
G01 X4.4333 Z2.5596 F30
G01 X4.4667 Z2.5788 F30
G01 X4.5 Z2.5981 F30
G01 X4.5333 Z2.6173 F30
G01 X4.5667 Z2.6366 F30
G01 X4.6 Z2.6558 F30
G01 X4.6333 Z2.6751 F30
G01 X4.6667 Z2.6943 F30
G01 X4.7 Z2.7135 F30
G01 X4.7333 Z2.7328 F30
G01 X4.7667 Z2.752 F30
G01 X4.8 Z2.7713 F30
G01 X4.8333 Z2.7905 F30
G01 X4.8667 Z2.8098 F30
G01 X4.9 Z2.829 F30
G01 X4.9333 Z2.8483 F30
G01 X4.9667 Z2.8675 F30
G01 X5.0 Z2.8868 F30
G01 X5.0333 Z2.906 F30
G01 X5.0667 Z2.9252 F30
G01 X5.1 Z2.9445 F30
G01 X5.1333 Z2.9637 F30
G01 X5.1667 Z2.983 F30
G01 X5.2 Z3.0022 F30
G01 X5.2333 Z3.0215 F30
G01 X5.2667 Z3.0407 F30
G01 X5.3 Z3.06 F30
G01 X5.3333 Z3.0792 F30
G01 X5.3667 Z3.0984 F30
G01 X5.4 Z3.1177 F30
G01 X5.4333 Z3.1369 F30
G01 X5.4667 Z3.1562 F30
G01 X5.5 Z3.1754 F30
G01 X5.5333 Z3.1947 F30
G01 X5.5667 Z3.2139 F30
G01 X5.6 Z3.2332 F30
G01 X5.6333 Z3.2524 F30
G01 X5.6667 Z3.2717 F30
G01 X5.7 Z3.2909 F30
G01 X5.7333 Z3.3101 F30
G01 X5.7667 Z3.3294 F30
G01 X5.8 Z3.3486 F30
G01 X5.8333 Z3.3679 F30
G01 X5.8667 Z3.3871 F30
G01 X5.9 Z3.4064 F30
G01 X5.9333 Z3.4256 F30
G01 X5.9667 Z3.4449 F30
G01 X6.0 Z3.4641 F30
G01 X6.0333 Z3.4833 F30
G01 X6.0667 Z3.5026 F30
G01 X6.1 Z3.5218 F30
G01 X6.1333 Z3.5411 F30
G01 X6.1667 Z3.5603 F30
G01 X6.2 Z3.5796 F30
G01 X6.2333 Z3.5988 F30
G01 X6.2667 Z3.6181 F30
G01 X6.3 Z3.6373 F30
G01 X6.3333 Z3.6566 F30
G01 X6.3667 Z3.6758 F30
G01 X6.4 Z3.695 F30
G01 X6.4333 Z3.7143 F30
G01 X6.4667 Z3.7335 F30
G01 X6.5 Z3.7528 F30
G01 X6.5333 Z3.772 F30
G01 X6.5667 Z3.7913 F30
G01 X6.6 Z3.8105 F30
G01 X6.6333 Z3.8298 F30
G01 X6.6667 Z3.849 F30
G01 X6.7 Z3.8682 F30
G01 X6.7333 Z3.8875 F30
G01 X6.7667 Z3.9067 F30
G01 X6.8 Z3.926 F30
G01 X6.8333 Z3.9452 F30
G01 X6.8667 Z3.9645 F30
G01 X6.9 Z3.9837 F30
G01 X6.9333 Z4.003 F30
G01 X6.9667 Z4.0222 F30
G01 X7.0 Z4.0415 F30
G01 X7.0333 Z4.0607 F30
G01 X7.0667 Z4.0799 F30
G01 X7.1 Z4.0992 F30
G01 X7.1333 Z4.1184 F30
G01 X7.1667 Z4.1377 F30
G01 X7.2 Z4.1569 F30
G01 X7.2333 Z4.1762 F30
G01 X7.2667 Z4.1954 F30
G01 X7.3 Z4.2147 F30
G01 X7.3333 Z4.2339 F30
G01 X7.3667 Z4.2531 F30
G01 X7.4 Z4.2724 F30
G01 X7.4333 Z4.2916 F30
G01 X7.4667 Z4.3109 F30
G01 X7.5 Z4.3301 F30
G01 X7.5333 Z4.3494 F30
G01 X7.5667 Z4.3686 F30
G01 X7.6 Z4.3879 F30
G01 X7.6333 Z4.4071 F30
G01 X7.6667 Z4.4264 F30
G01 X7.7 Z4.4456 F30
G01 X7.7333 Z4.4648 F30
G01 X7.7667 Z4.4841 F30
G01 X7.8 Z4.5033 F30
G01 X7.8333 Z4.5226 F30
G01 X7.8667 Z4.5418 F30
G01 X7.9 Z4.5611 F30
G01 X7.9333 Z4.5803 F30
G01 X7.9667 Z4.5996 F30
G01 X8.0 Z4.6188 F30
G01 X8.0333 Z4.638 F30
G01 X8.0667 Z4.6573 F30
G01 X8.1 Z4.6765 F30
G01 X8.1333 Z4.6958 F30
G01 X8.1667 Z4.715 F30
G01 X8.2 Z4.7343 F30
G01 X8.2333 Z4.7535 F30
G01 X8.2667 Z4.7728 F30
G01 X8.3 Z4.792 F30
G01 X8.3333 Z4.8113 F30
G01 X8.3667 Z4.8305 F30
G01 X8.4 Z4.8497 F30
G01 X8.4333 Z4.869 F30
G01 X8.4667 Z4.8882 F30
G01 X8.5 Z4.9075 F30
G01 X8.5333 Z4.9267 F30
G01 X8.5667 Z4.946 F30
G01 X8.6 Z4.9652 F30
G01 X8.6333 Z4.9845 F30
G01 X8.6667 Z5.0037 F30
G01 X8.7 Z5.0229 F30
G01 X8.7333 Z5.0422 F30
G01 X8.7667 Z5.0614 F30
G01 X8.8 Z5.0807 F30
G01 X8.8333 Z5.0999 F30
G01 X8.8667 Z5.1192 F30
G01 X8.9 Z5.1384 F30
G01 X8.9333 Z5.1577 F30
G01 X8.9667 Z5.1769 F30
G01 X9.0 Z5.1962 F30
G01 X9.0333 Z5.2154 F30
G01 X9.0667 Z5.2346 F30
G01 X9.1 Z5.2539 F30
G01 X9.1333 Z5.2731 F30
G01 X9.1667 Z5.2924 F30
G01 X9.2 Z5.3116 F30
G01 X9.2333 Z5.3309 F30
G01 X9.2667 Z5.3501 F30
G01 X9.3 Z5.3694 F30
G01 X9.3333 Z5.3886 F30
G01 X9.3667 Z5.4078 F30
G01 X9.4 Z5.4271 F30
G01 X9.4333 Z5.4463 F30
G01 X9.4667 Z5.4656 F30
G01 X9.5 Z5.4848 F30
G01 X9.5333 Z5.5041 F30
G01 X9.5667 Z5.5233 F30
G01 X9.6 Z5.5426 F30
G01 X9.6333 Z5.5618 F30
G01 X9.6667 Z5.5811 F30
G01 X9.7 Z5.6003 F30
G01 X9.7333 Z5.6195 F30
G01 X9.7667 Z5.6388 F30
G01 X9.8 Z5.658 F30
G01 X9.8333 Z5.6773 F30
G01 X9.8667 Z5.6965 F30
G01 X9.9 Z5.7158 F30
G01 X9.9333 Z5.735 F30
G01 X9.9667 Z5.7543 F30
G01 X10.0 Z5.7735 F30
G01 X10.0 Z5.7927 F30
G01 X9.9667 Z5.812 F30
G01 X9.9333 Z5.8312 F30
G01 X9.9 Z5.8505 F30
G01 X9.8667 Z5.8697 F30
G01 X9.8333 Z5.889 F30
G01 X9.8 Z5.9082 F30
G01 X9.7667 Z5.9275 F30
G01 X9.7333 Z5.9467 F30
G01 X9.7 Z5.966 F30
G01 X9.6667 Z5.9852 F30
G01 X9.6333 Z6.0044 F30
G01 X9.6 Z6.0237 F30
G01 X9.5667 Z6.0429 F30
G01 X9.5333 Z6.0622 F30
G01 X9.5 Z6.0814 F30
G01 X9.4667 Z6.1007 F30
G01 X9.4333 Z6.1199 F30
G01 X9.4 Z6.1392 F30
G01 X9.3667 Z6.1584 F30
G01 X9.3333 Z6.1776 F30
G01 X9.3 Z6.1969 F30
G01 X9.2667 Z6.2161 F30
G01 X9.2333 Z6.2354 F30
G01 X9.2 Z6.2546 F30
G01 X9.1667 Z6.2739 F30
G01 X9.1333 Z6.2931 F30
G01 X9.1 Z6.3124 F30
G01 X9.0667 Z6.3316 F30
G01 X9.0333 Z6.3509 F30
G01 X9.0 Z6.3701 F30
G01 X8.9667 Z6.3893 F30
G01 X8.9333 Z6.4086 F30
G01 X8.9 Z6.4278 F30
G01 X8.8667 Z6.4471 F30
G01 X8.8333 Z6.4663 F30
G01 X8.8 Z6.4856 F30
G01 X8.7667 Z6.5048 F30
G01 X8.7333 Z6.5241 F30
G01 X8.7 Z6.5433 F30
G01 X8.6667 Z6.5625 F30
G01 X8.6333 Z6.5818 F30
G01 X8.6 Z6.601 F30
G01 X8.5667 Z6.6203 F30
G01 X8.5333 Z6.6395 F30
G01 X8.5 Z6.6588 F30
G01 X8.4667 Z6.678 F30
G01 X8.4333 Z6.6973 F30
G01 X8.4 Z6.7165 F30
G01 X8.3667 Z6.7358 F30
G01 X8.3333 Z6.755 F30
G01 X8.3 Z6.7742 F30
G01 X8.2667 Z6.7935 F30
G01 X8.2333 Z6.8127 F30
G01 X8.2 Z6.832 F30
G01 X8.1667 Z6.8512 F30
G01 X8.1333 Z6.8705 F30
G01 X8.1 Z6.8897 F30
G01 X8.0667 Z6.909 F30
G01 X8.0333 Z6.9282 F30
G01 X8.0 Z6.9474 F30
G01 X7.9667 Z6.9667 F30
G01 X7.9333 Z6.9859 F30
G01 X7.9 Z7.0052 F30
G01 X7.8667 Z7.0244 F30
G01 X7.8333 Z7.0437 F30
G01 X7.8 Z7.0629 F30
G01 X7.7667 Z7.0822 F30
G01 X7.7333 Z7.1014 F30
G01 X7.7 Z7.1207 F30
G01 X7.6667 Z7.1399 F30
G01 X7.6333 Z7.1591 F30
G01 X7.6 Z7.1784 F30
G01 X7.5667 Z7.1976 F30
G01 X7.5333 Z7.2169 F30
G01 X7.5 Z7.2361 F30
G01 X7.4667 Z7.2554 F30
G01 X7.4333 Z7.2746 F30
G01 X7.4 Z7.2939 F30
G01 X7.3667 Z7.3131 F30
G01 X7.3333 Z7.3323 F30
G01 X7.3 Z7.3516 F30
G01 X7.2667 Z7.3708 F30
G01 X7.2333 Z7.3901 F30
G01 X7.2 Z7.4093 F30
G01 X7.1667 Z7.4286 F30
G01 X7.1333 Z7.4478 F30
G01 X7.1 Z7.4671 F30
G01 X7.0667 Z7.4863 F30
G01 X7.0333 Z7.5056 F30
G01 X7.0 Z7.5248 F30
G01 X6.9667 Z7.544 F30
G01 X6.9333 Z7.5633 F30
G01 X6.9 Z7.5825 F30
G01 X6.8667 Z7.6018 F30
G01 X6.8333 Z7.621 F30
G01 X6.8 Z7.6403 F30
G01 X6.7667 Z7.6595 F30
G01 X6.7333 Z7.6788 F30
G01 X6.7 Z7.698 F30
G01 X6.6667 Z7.7172 F30
G01 X6.6333 Z7.7365 F30
G01 X6.6 Z7.7557 F30
G01 X6.5667 Z7.775 F30
G01 X6.5333 Z7.7942 F30
G01 X6.5 Z7.8135 F30
G01 X6.4667 Z7.8327 F30
G01 X6.4333 Z7.852 F30
G01 X6.4 Z7.8712 F30
G01 X6.3667 Z7.8905 F30
G01 X6.3333 Z7.9097 F30
G01 X6.3 Z7.9289 F30
G01 X6.2667 Z7.9482 F30
G01 X6.2333 Z7.9674 F30
G01 X6.2 Z7.9867 F30
G01 X6.1667 Z8.0059 F30
G01 X6.1333 Z8.0252 F30
G01 X6.1 Z8.0444 F30
G01 X6.0667 Z8.0637 F30
G01 X6.0333 Z8.0829 F30
G01 X6.0 Z8.1021 F30
G01 X5.9667 Z8.1214 F30
G01 X5.9333 Z8.1406 F30
G01 X5.9 Z8.1599 F30
G01 X5.8667 Z8.1791 F30
G01 X5.8333 Z8.1984 F30
G01 X5.8 Z8.2176 F30
G01 X5.7667 Z8.2369 F30
G01 X5.7333 Z8.2561 F30
G01 X5.7 Z8.2754 F30
G01 X5.6667 Z8.2946 F30
G01 X5.6333 Z8.3138 F30
G01 X5.6 Z8.3331 F30
G01 X5.5667 Z8.3523 F30
G01 X5.5333 Z8.3716 F30
G01 X5.5 Z8.3908 F30
G01 X5.4667 Z8.4101 F30
G01 X5.4333 Z8.4293 F30
G01 X5.4 Z8.4486 F30
G01 X5.3667 Z8.4678 F30
G01 X5.3333 Z8.487 F30
G01 X5.3 Z8.5063 F30
G01 X5.2667 Z8.5255 F30
G01 X5.2333 Z8.5448 F30
G01 X5.2 Z8.564 F30
G01 X5.1667 Z8.5833 F30
G01 X5.1333 Z8.6025 F30
G01 X5.1 Z8.6218 F30
G01 X5.0667 Z8.641 F30
G01 X5.0333 Z8.6603 F30
G01 X5.0 Z8.6795 F30
G01 X4.9667 Z8.6987 F30
G01 X4.9333 Z8.718 F30
G01 X4.9 Z8.7372 F30
G01 X4.8667 Z8.7565 F30
G01 X4.8333 Z8.7757 F30
G01 X4.8 Z8.795 F30
G01 X4.7667 Z8.8142 F30
G01 X4.7333 Z8.8335 F30
G01 X4.7 Z8.8527 F30
G01 X4.6667 Z8.8719 F30
G01 X4.6333 Z8.8912 F30
G01 X4.6 Z8.9104 F30
G01 X4.5667 Z8.9297 F30
G01 X4.5333 Z8.9489 F30
G01 X4.5 Z8.9682 F30
G01 X4.4667 Z8.9874 F30
G01 X4.4333 Z9.0067 F30
G01 X4.4 Z9.0259 F30
G01 X4.3667 Z9.0452 F30
G01 X4.3333 Z9.0644 F30
G01 X4.3 Z9.0836 F30
G01 X4.2667 Z9.1029 F30
G01 X4.2333 Z9.1221 F30
G01 X4.2 Z9.1414 F30
G01 X4.1667 Z9.1606 F30
G01 X4.1333 Z9.1799 F30
G01 X4.1 Z9.1991 F30
G01 X4.0667 Z9.2184 F30
G01 X4.0333 Z9.2376 F30
G01 X4.0 Z9.2568 F30
G01 X3.9667 Z9.2761 F30
G01 X3.9333 Z9.2953 F30
G01 X3.9 Z9.3146 F30
G01 X3.8667 Z9.3338 F30
G01 X3.8333 Z9.3531 F30
G01 X3.8 Z9.3723 F30
G01 X3.7667 Z9.3916 F30
G01 X3.7333 Z9.4108 F30
G01 X3.7 Z9.4301 F30
G01 X3.6667 Z9.4493 F30
G01 X3.6333 Z9.4685 F30
G01 X3.6 Z9.4878 F30
G01 X3.5667 Z9.507 F30
G01 X3.5333 Z9.5263 F30
G01 X3.5 Z9.5455 F30
G01 X3.4667 Z9.5648 F30
G01 X3.4333 Z9.584 F30
G01 X3.4 Z9.6033 F30
G01 X3.3667 Z9.6225 F30
G01 X3.3333 Z9.6417 F30
G01 X3.3 Z9.661 F30
G01 X3.2667 Z9.6802 F30
G01 X3.2333 Z9.6995 F30
G01 X3.2 Z9.7187 F30
G01 X3.1667 Z9.738 F30
G01 X3.1333 Z9.7572 F30
G01 X3.1 Z9.7765 F30
G01 X3.0667 Z9.7957 F30
G01 X3.0333 Z9.815 F30
G01 X3.0 Z9.8342 F30
G01 X2.9667 Z9.8534 F30
G01 X2.9333 Z9.8727 F30
G01 X2.9 Z9.8919 F30
G01 X2.8667 Z9.9112 F30
G01 X2.8333 Z9.9304 F30
G01 X2.8 Z9.9497 F30
G01 X2.7667 Z9.9689 F30
G01 X2.7333 Z9.9882 F30
G01 X2.7 Z10.0074 F30
G01 X2.6667 Z10.0266 F30
G01 X2.6333 Z10.0459 F30
G01 X2.6 Z10.0651 F30
G01 X2.5667 Z10.0844 F30
G01 X2.5333 Z10.1036 F30
G01 X2.5 Z10.1229 F30
G01 X2.4667 Z10.1421 F30
G01 X2.4333 Z10.1614 F30
G01 X2.4 Z10.1806 F30
G01 X2.3667 Z10.1999 F30
G01 X2.3333 Z10.2191 F30
G01 X2.3 Z10.2383 F30
G01 X2.2667 Z10.2576 F30
G01 X2.2333 Z10.2768 F30
G01 X2.2 Z10.2961 F30
G01 X2.1667 Z10.3153 F30
G01 X2.1333 Z10.3346 F30
G01 X2.1 Z10.3538 F30
G01 X2.0667 Z10.3731 F30
G01 X2.0333 Z10.3923 F30
G01 X2.0 Z10.4115 F30
G01 X1.9667 Z10.4308 F30
G01 X1.9333 Z10.45 F30
G01 X1.9 Z10.4693 F30
G01 X1.8667 Z10.4885 F30
G01 X1.8333 Z10.5078 F30
G01 X1.8 Z10.527 F30
G01 X1.7667 Z10.5463 F30
G01 X1.7333 Z10.5655 F30
G01 X1.7 Z10.5848 F30
G01 X1.6667 Z10.604 F30
G01 X1.6333 Z10.6232 F30
G01 X1.6 Z10.6425 F30
G01 X1.5667 Z10.6617 F30
G01 X1.5333 Z10.681 F30
G01 X1.5 Z10.7002 F30
G01 X1.4667 Z10.7195 F30
G01 X1.4333 Z10.7387 F30
G01 X1.4 Z10.758 F30
G01 X1.3667 Z10.7772 F30
G01 X1.3333 Z10.7965 F30
G01 X1.3 Z10.8157 F30
G01 X1.2667 Z10.8349 F30
G01 X1.2333 Z10.8542 F30
G01 X1.2 Z10.8734 F30
G01 X1.1667 Z10.8927 F30
G01 X1.1333 Z10.9119 F30
G01 X1.1 Z10.9312 F30
G01 X1.0667 Z10.9504 F30
G01 X1.0333 Z10.9697 F30
G01 X1.0 Z10.9889 F30
G01 X0.9667 Z11.0081 F30
G01 X0.9333 Z11.0274 F30
G01 X0.9 Z11.0466 F30
G01 X0.8667 Z11.0659 F30
G01 X0.8333 Z11.0851 F30
G01 X0.8 Z11.1044 F30
G01 X0.7667 Z11.1236 F30
G01 X0.7333 Z11.1429 F30
G01 X0.7 Z11.1621 F30
G01 X0.6667 Z11.1814 F30
G01 X0.6333 Z11.2006 F30
G01 X0.6 Z11.2198 F30
G01 X0.5667 Z11.2391 F30
G01 X0.5333 Z11.2583 F30
G01 X0.5 Z11.2776 F30
G01 X0.4667 Z11.2968 F30
G01 X0.4333 Z11.3161 F30
G01 X0.4 Z11.3353 F30
G01 X0.3667 Z11.3546 F30
G01 X0.3333 Z11.3738 F30
G01 X0.3 Z11.393 F30
G01 X0.2667 Z11.4123 F30
G01 X0.2333 Z11.4315 F30
G01 X0.2 Z11.4508 F30
G01 X0.1667 Z11.47 F30
G01 X0.1333 Z11.4893 F30
G01 X0.1 Z11.5085 F30
G01 X0.0667 Z11.5278 F30
G01 X0.0333 Z11.547 F30
G01 X0.0 Z11.5663 F30
G01 X0 Z11.5855 F30
G01 X0.0333 Z11.6047 F30
G01 X0.0667 Z11.624 F30
G01 X0.1 Z11.6432 F30
G01 X0.1333 Z11.6625 F30
G01 X0.1667 Z11.6817 F30
G01 X0.2 Z11.701 F30
G01 X0.2333 Z11.7202 F30
G01 X0.2667 Z11.7395 F30
G01 X0.3 Z11.7587 F30
G01 X0.3333 Z11.7779 F30
G01 X0.3667 Z11.7972 F30
G01 X0.4 Z11.8164 F30
G01 X0.4333 Z11.8357 F30
G01 X0.4667 Z11.8549 F30
G01 X0.5 Z11.8742 F30
G01 X0.5333 Z11.8934 F30
G01 X0.5667 Z11.9127 F30
G01 X0.6 Z11.9319 F30
G01 X0.6333 Z11.9512 F30
G01 X0.6667 Z11.9704 F30
G01 X0.7 Z11.9896 F30
G01 X0.7333 Z12.0089 F30
G01 X0.7667 Z12.0281 F30
G01 X0.8 Z12.0474 F30
G01 X0.8333 Z12.0666 F30
G01 X0.8667 Z12.0859 F30
G01 X0.9 Z12.1051 F30
G01 X0.9333 Z12.1244 F30
G01 X0.9667 Z12.1436 F30
G01 X1.0 Z12.1628 F30
G01 X1.0333 Z12.1821 F30
G01 X1.0667 Z12.2013 F30
G01 X1.1 Z12.2206 F30
G01 X1.1333 Z12.2398 F30
G01 X1.1667 Z12.2591 F30
G01 X1.2 Z12.2783 F30
G01 X1.2333 Z12.2976 F30
G01 X1.2667 Z12.3168 F30
G01 X1.3 Z12.3361 F30
G01 X1.3333 Z12.3553 F30
G01 X1.3667 Z12.3745 F30
G01 X1.4 Z12.3938 F30
G01 X1.4333 Z12.413 F30
G01 X1.4667 Z12.4323 F30
G01 X1.5 Z12.4515 F30
G01 X1.5333 Z12.4708 F30
G01 X1.5667 Z12.49 F30
G01 X1.6 Z12.5093 F30
G01 X1.6333 Z12.5285 F30
G01 X1.6667 Z12.5477 F30
G01 X1.7 Z12.567 F30
G01 X1.7333 Z12.5862 F30
G01 X1.7667 Z12.6055 F30
G01 X1.8 Z12.6247 F30
G01 X1.8333 Z12.644 F30
G01 X1.8667 Z12.6632 F30
G01 X1.9 Z12.6825 F30
G01 X1.9333 Z12.7017 F30
G01 X1.9667 Z12.721 F30
G01 X2.0 Z12.7402 F30
G01 X2.0333 Z12.7594 F30
G01 X2.0667 Z12.7787 F30
G01 X2.1 Z12.7979 F30
G01 X2.1333 Z12.8172 F30
G01 X2.1667 Z12.8364 F30
G01 X2.2 Z12.8557 F30
G01 X2.2333 Z12.8749 F30
G01 X2.2667 Z12.8942 F30
G01 X2.3 Z12.9134 F30
G01 X2.3333 Z12.9326 F30
G01 X2.3667 Z12.9519 F30
G01 X2.4 Z12.9711 F30
G01 X2.4333 Z12.9904 F30
G01 X2.4667 Z13.0096 F30
G01 X2.5 Z13.0289 F30
G01 X2.5333 Z13.0481 F30
G01 X2.5667 Z13.0674 F30
G01 X2.6 Z13.0866 F30
G01 X2.6333 Z13.1059 F30
G01 X2.6667 Z13.1251 F30
G01 X2.7 Z13.1443 F30
G01 X2.7333 Z13.1636 F30
G01 X2.7667 Z13.1828 F30
G01 X2.8 Z13.2021 F30
G01 X2.8333 Z13.2213 F30
G01 X2.8667 Z13.2406 F30
G01 X2.9 Z13.2598 F30
G01 X2.9333 Z13.2791 F30
G01 X2.9667 Z13.2983 F30
G01 X3.0 Z13.3175 F30
G01 X3.0333 Z13.3368 F30
G01 X3.0667 Z13.356 F30
G01 X3.1 Z13.3753 F30
G01 X3.1333 Z13.3945 F30
G01 X3.1667 Z13.4138 F30
G01 X3.2 Z13.433 F30
G01 X3.2333 Z13.4523 F30
G01 X3.2667 Z13.4715 F30
G01 X3.3 Z13.4908 F30
G01 X3.3333 Z13.51 F30
G01 X3.3667 Z13.5292 F30
G01 X3.4 Z13.5485 F30
G01 X3.4333 Z13.5677 F30
G01 X3.4667 Z13.587 F30
G01 X3.5 Z13.6062 F30
G01 X3.5333 Z13.6255 F30
G01 X3.5667 Z13.6447 F30
G01 X3.6 Z13.664 F30
G01 X3.6333 Z13.6832 F30
G01 X3.6667 Z13.7024 F30
G01 X3.7 Z13.7217 F30
G01 X3.7333 Z13.7409 F30
G01 X3.7667 Z13.7602 F30
G01 X3.8 Z13.7794 F30
G01 X3.8333 Z13.7987 F30
G01 X3.8667 Z13.8179 F30
G01 X3.9 Z13.8372 F30
G01 X3.9333 Z13.8564 F30
G01 X3.9667 Z13.8757 F30
G01 X4.0 Z13.8949 F30
G01 X4.0333 Z13.9141 F30
G01 X4.0667 Z13.9334 F30
G01 X4.1 Z13.9526 F30
G01 X4.1333 Z13.9719 F30
G01 X4.1667 Z13.9911 F30
G01 X4.2 Z14.0104 F30
G01 X4.2333 Z14.0296 F30
G01 X4.2667 Z14.0489 F30
G01 X4.3 Z14.0681 F30
G01 X4.3333 Z14.0873 F30
G01 X4.3667 Z14.1066 F30
G01 X4.4 Z14.1258 F30
G01 X4.4333 Z14.1451 F30
G01 X4.4667 Z14.1643 F30
G01 X4.5 Z14.1836 F30
G01 X4.5333 Z14.2028 F30
G01 X4.5667 Z14.2221 F30
G01 X4.6 Z14.2413 F30
G01 X4.6333 Z14.2606 F30
G01 X4.6667 Z14.2798 F30
G01 X4.7 Z14.299 F30
G01 X4.7333 Z14.3183 F30
G01 X4.7667 Z14.3375 F30
G01 X4.8 Z14.3568 F30
G01 X4.8333 Z14.376 F30
G01 X4.8667 Z14.3953 F30
G01 X4.9 Z14.4145 F30
G01 X4.9333 Z14.4338 F30
G01 X4.9667 Z14.453 F30
G01 X5.0 Z14.4722 F30
G01 X5.0333 Z14.4915 F30
G01 X5.0667 Z14.5107 F30
G01 X5.1 Z14.53 F30
G01 X5.1333 Z14.5492 F30
G01 X5.1667 Z14.5685 F30
G01 X5.2 Z14.5877 F30
G01 X5.2333 Z14.607 F30
G01 X5.2667 Z14.6262 F30
G01 X5.3 Z14.6455 F30
G01 X5.3333 Z14.6647 F30
G01 X5.3667 Z14.6839 F30
G01 X5.4 Z14.7032 F30
G01 X5.4333 Z14.7224 F30
G01 X5.4667 Z14.7417 F30
G01 X5.5 Z14.7609 F30
G01 X5.5333 Z14.7802 F30
G01 X5.5667 Z14.7994 F30
G01 X5.6 Z14.8187 F30
G01 X5.6333 Z14.8379 F30
G01 X5.6667 Z14.8571 F30
G01 X5.7 Z14.8764 F30
G01 X5.7333 Z14.8956 F30
G01 X5.7667 Z14.9149 F30
G01 X5.8 Z14.9341 F30
G01 X5.8333 Z14.9534 F30
G01 X5.8667 Z14.9726 F30
G01 X5.9 Z14.9919 F30
G01 X5.9333 Z15.0111 F30
G01 X5.9667 Z15.0304 F30
G01 X6.0 Z15.0496 F30
G01 X6.0333 Z15.0688 F30
G01 X6.0667 Z15.0881 F30
G01 X6.1 Z15.1073 F30
G01 X6.1333 Z15.1266 F30
G01 X6.1667 Z15.1458 F30
G01 X6.2 Z15.1651 F30
G01 X6.2333 Z15.1843 F30
G01 X6.2667 Z15.2036 F30
G01 X6.3 Z15.2228 F30
G01 X6.3333 Z15.242 F30
G01 X6.3667 Z15.2613 F30
G01 X6.4 Z15.2805 F30
G01 X6.4333 Z15.2998 F30
G01 X6.4667 Z15.319 F30
G01 X6.5 Z15.3383 F30
G01 X6.5333 Z15.3575 F30
G01 X6.5667 Z15.3768 F30
G01 X6.6 Z15.396 F30
G01 X6.6333 Z15.4153 F30
G01 X6.6667 Z15.4345 F30
G01 X6.7 Z15.4537 F30
G01 X6.7333 Z15.473 F30
G01 X6.7667 Z15.4922 F30
G01 X6.8 Z15.5115 F30
G01 X6.8333 Z15.5307 F30
G01 X6.8667 Z15.55 F30
G01 X6.9 Z15.5692 F30
G01 X6.9333 Z15.5885 F30
G01 X6.9667 Z15.6077 F30
G01 X7.0 Z15.6269 F30
G01 X7.0333 Z15.6462 F30
G01 X7.0667 Z15.6654 F30
G01 X7.1 Z15.6847 F30
G01 X7.1333 Z15.7039 F30
G01 X7.1667 Z15.7232 F30
G01 X7.2 Z15.7424 F30
G01 X7.2333 Z15.7617 F30
G01 X7.2667 Z15.7809 F30
G01 X7.3 Z15.8002 F30
G01 X7.3333 Z15.8194 F30
G01 X7.3667 Z15.8386 F30
G01 X7.4 Z15.8579 F30
G01 X7.4333 Z15.8771 F30
G01 X7.4667 Z15.8964 F30
G01 X7.5 Z15.9156 F30
G01 X7.5333 Z15.9349 F30
G01 X7.5667 Z15.9541 F30
G01 X7.6 Z15.9734 F30
G01 X7.6333 Z15.9926 F30
G01 X7.6667 Z16.0118 F30
G01 X7.7 Z16.0311 F30
G01 X7.7333 Z16.0503 F30
G01 X7.7667 Z16.0696 F30
G01 X7.8 Z16.0888 F30
G01 X7.8333 Z16.1081 F30
G01 X7.8667 Z16.1273 F30
G01 X7.9 Z16.1466 F30
G01 X7.9333 Z16.1658 F30
G01 X7.9667 Z16.1851 F30
G01 X8.0 Z16.2043 F30
G01 X8.0333 Z16.2235 F30
G01 X8.0667 Z16.2428 F30
G01 X8.1 Z16.262 F30
G01 X8.1333 Z16.2813 F30
G01 X8.1667 Z16.3005 F30
G01 X8.2 Z16.3198 F30
G01 X8.2333 Z16.339 F30
G01 X8.2667 Z16.3583 F30
G01 X8.3 Z16.3775 F30
G01 X8.3333 Z16.3967 F30
G01 X8.3667 Z16.416 F30
G01 X8.4 Z16.4352 F30
G01 X8.4333 Z16.4545 F30
G01 X8.4667 Z16.4737 F30
G01 X8.5 Z16.493 F30
G01 X8.5333 Z16.5122 F30
G01 X8.5667 Z16.5315 F30
G01 X8.6 Z16.5507 F30
G01 X8.6333 Z16.57 F30
G01 X8.6667 Z16.5892 F30
G01 X8.7 Z16.6084 F30
G01 X8.7333 Z16.6277 F30
G01 X8.7667 Z16.6469 F30
G01 X8.8 Z16.6662 F30
G01 X8.8333 Z16.6854 F30
G01 X8.8667 Z16.7047 F30
G01 X8.9 Z16.7239 F30
G01 X8.9333 Z16.7432 F30
G01 X8.9667 Z16.7624 F30
G01 X9.0 Z16.7816 F30
G01 X9.0333 Z16.8009 F30
G01 X9.0667 Z16.8201 F30
G01 X9.1 Z16.8394 F30
G01 X9.1333 Z16.8586 F30
G01 X9.1667 Z16.8779 F30
G01 X9.2 Z16.8971 F30
G01 X9.2333 Z16.9164 F30
G01 X9.2667 Z16.9356 F30
G01 X9.3 Z16.9549 F30
G01 X9.3333 Z16.9741 F30
G01 X9.3667 Z16.9933 F30
G01 X9.4 Z17.0126 F30
G01 X9.4333 Z17.0318 F30
G01 X9.4667 Z17.0511 F30
G01 X9.5 Z17.0703 F30
G01 X9.5333 Z17.0896 F30
G01 X9.5667 Z17.1088 F30
G01 X9.6 Z17.1281 F30
G01 X9.6333 Z17.1473 F30
G01 X9.6667 Z17.1665 F30
G01 X9.7 Z17.1858 F30
G01 X9.7333 Z17.205 F30
G01 X9.7667 Z17.2243 F30
G01 X9.8 Z17.2435 F30
G01 X9.8333 Z17.2628 F30
G01 X9.8667 Z17.282 F30
G01 X9.9 Z17.3013 F30
G01 X9.9333 Z17.3205 F30
G01 X9.9667 Z17.3398 F30
G01 X10.0 Z17.359 F30
G01 X10.0 Z17.3782 F30
G01 X9.9667 Z17.3975 F30
G01 X9.9333 Z17.4167 F30
G01 X9.9 Z17.436 F30
G01 X9.8667 Z17.4552 F30
G01 X9.8333 Z17.4745 F30
G01 X9.8 Z17.4937 F30
G01 X9.7667 Z17.513 F30
G01 X9.7333 Z17.5322 F30
G01 X9.7 Z17.5514 F30
G01 X9.6667 Z17.5707 F30
G01 X9.6333 Z17.5899 F30
G01 X9.6 Z17.6092 F30
G01 X9.5667 Z17.6284 F30
G01 X9.5333 Z17.6477 F30
G01 X9.5 Z17.6669 F30
G01 X9.4667 Z17.6862 F30
G01 X9.4333 Z17.7054 F30
G01 X9.4 Z17.7247 F30
G01 X9.3667 Z17.7439 F30
G01 X9.3333 Z17.7631 F30
G01 X9.3 Z17.7824 F30
G01 X9.2667 Z17.8016 F30
G01 X9.2333 Z17.8209 F30
G01 X9.2 Z17.8401 F30
G01 X9.1667 Z17.8594 F30
G01 X9.1333 Z17.8786 F30
G01 X9.1 Z17.8979 F30
G01 X9.0667 Z17.9171 F30
G01 X9.0333 Z17.9363 F30
G01 X9.0 Z17.9556 F30
G01 X8.9667 Z17.9748 F30
G01 X8.9333 Z17.9941 F30
G01 X8.9 Z18.0133 F30
G01 X8.8667 Z18.0326 F30
G01 X8.8333 Z18.0518 F30
G01 X8.8 Z18.0711 F30
G01 X8.7667 Z18.0903 F30
G01 X8.7333 Z18.1096 F30
G01 X8.7 Z18.1288 F30
G01 X8.6667 Z18.148 F30
G01 X8.6333 Z18.1673 F30
G01 X8.6 Z18.1865 F30
G01 X8.5667 Z18.2058 F30
G01 X8.5333 Z18.225 F30
G01 X8.5 Z18.2443 F30
G01 X8.4667 Z18.2635 F30
G01 X8.4333 Z18.2828 F30
G01 X8.4 Z18.302 F30
G01 X8.3667 Z18.3212 F30
G01 X8.3333 Z18.3405 F30
G01 X8.3 Z18.3597 F30
G01 X8.2667 Z18.379 F30
G01 X8.2333 Z18.3982 F30
G01 X8.2 Z18.4175 F30
G01 X8.1667 Z18.4367 F30
G01 X8.1333 Z18.456 F30
G01 X8.1 Z18.4752 F30
G01 X8.0667 Z18.4945 F30
G01 X8.0333 Z18.5137 F30
G01 X8.0 Z18.5329 F30
G01 X7.9667 Z18.5522 F30
G01 X7.9333 Z18.5714 F30
G01 X7.9 Z18.5907 F30
G01 X7.8667 Z18.6099 F30
G01 X7.8333 Z18.6292 F30
G01 X7.8 Z18.6484 F30
G01 X7.7667 Z18.6677 F30
G01 X7.7333 Z18.6869 F30
G01 X7.7 Z18.7061 F30
G01 X7.6667 Z18.7254 F30
G01 X7.6333 Z18.7446 F30
G01 X7.6 Z18.7639 F30
G01 X7.5667 Z18.7831 F30
G01 X7.5333 Z18.8024 F30
G01 X7.5 Z18.8216 F30
G01 X7.4667 Z18.8409 F30
G01 X7.4333 Z18.8601 F30
G01 X7.4 Z18.8794 F30
G01 X7.3667 Z18.8986 F30
G01 X7.3333 Z18.9178 F30
G01 X7.3 Z18.9371 F30
G01 X7.2667 Z18.9563 F30
G01 X7.2333 Z18.9756 F30
G01 X7.2 Z18.9948 F30
G01 X7.1667 Z19.0141 F30
G01 X7.1333 Z19.0333 F30
G01 X7.1 Z19.0526 F30
G01 X7.0667 Z19.0718 F30
G01 X7.0333 Z19.091 F30
G01 X7.0 Z19.1103 F30
G01 X6.9667 Z19.1295 F30
G01 X6.9333 Z19.1488 F30
G01 X6.9 Z19.168 F30
G01 X6.8667 Z19.1873 F30
G01 X6.8333 Z19.2065 F30
G01 X6.8 Z19.2258 F30
G01 X6.7667 Z19.245 F30
G01 X6.7333 Z19.2643 F30
G01 X6.7 Z19.2835 F30
G01 X6.6667 Z19.3027 F30
G01 X6.6333 Z19.322 F30
G01 X6.6 Z19.3412 F30
G01 X6.5667 Z19.3605 F30
G01 X6.5333 Z19.3797 F30
G01 X6.5 Z19.399 F30
G01 X6.4667 Z19.4182 F30
G01 X6.4333 Z19.4375 F30
G01 X6.4 Z19.4567 F30
G01 X6.3667 Z19.4759 F30
G01 X6.3333 Z19.4952 F30
G01 X6.3 Z19.5144 F30
G01 X6.2667 Z19.5337 F30
G01 X6.2333 Z19.5529 F30
G01 X6.2 Z19.5722 F30
G01 X6.1667 Z19.5914 F30
G01 X6.1333 Z19.6107 F30
G01 X6.1 Z19.6299 F30
G01 X6.0667 Z19.6492 F30
G01 X6.0333 Z19.6684 F30
G01 X6.0 Z19.6876 F30
G01 X5.9667 Z19.7069 F30
G01 X5.9333 Z19.7261 F30
G01 X5.9 Z19.7454 F30
G01 X5.8667 Z19.7646 F30
G01 X5.8333 Z19.7839 F30
G01 X5.8 Z19.8031 F30
G01 X5.7667 Z19.8224 F30
G01 X5.7333 Z19.8416 F30
G01 X5.7 Z19.8608 F30
G01 X5.6667 Z19.8801 F30
G01 X5.6333 Z19.8993 F30
G01 X5.6 Z19.9186 F30
G01 X5.5667 Z19.9378 F30
G01 X5.5333 Z19.9571 F30
G01 X5.5 Z19.9763 F30
G01 X5.4667 Z19.9956 F30
G01 X5.4333 Z20.0148 F30
G01 X5.4 Z20.0341 F30
G01 X5.3667 Z20.0533 F30
G01 X5.3333 Z20.0725 F30
G01 X5.3 Z20.0918 F30
G01 X5.2667 Z20.111 F30
G01 X5.2333 Z20.1303 F30
G01 X5.2 Z20.1495 F30
G01 X5.1667 Z20.1688 F30
G01 X5.1333 Z20.188 F30
G01 X5.1 Z20.2073 F30
G01 X5.0667 Z20.2265 F30
G01 X5.0333 Z20.2457 F30
G01 X5.0 Z20.265 F30
G01 X4.9667 Z20.2842 F30
G01 X4.9333 Z20.3035 F30
G01 X4.9 Z20.3227 F30
G01 X4.8667 Z20.342 F30
G01 X4.8333 Z20.3612 F30
G01 X4.8 Z20.3805 F30
G01 X4.7667 Z20.3997 F30
G01 X4.7333 Z20.419 F30
G01 X4.7 Z20.4382 F30
G01 X4.6667 Z20.4574 F30
G01 X4.6333 Z20.4767 F30
G01 X4.6 Z20.4959 F30
G01 X4.5667 Z20.5152 F30
G01 X4.5333 Z20.5344 F30
G01 X4.5 Z20.5537 F30
G01 X4.4667 Z20.5729 F30
G01 X4.4333 Z20.5922 F30
G01 X4.4 Z20.6114 F30
G01 X4.3667 Z20.6306 F30
G01 X4.3333 Z20.6499 F30
G01 X4.3 Z20.6691 F30
G01 X4.2667 Z20.6884 F30
G01 X4.2333 Z20.7076 F30
G01 X4.2 Z20.7269 F30
G01 X4.1667 Z20.7461 F30
G01 X4.1333 Z20.7654 F30
G01 X4.1 Z20.7846 F30
G01 X4.0667 Z20.8039 F30
G01 X4.0333 Z20.8231 F30
G01 X4.0 Z20.8423 F30
G01 X3.9667 Z20.8616 F30
G01 X3.9333 Z20.8808 F30
G01 X3.9 Z20.9001 F30
G01 X3.8667 Z20.9193 F30
G01 X3.8333 Z20.9386 F30
G01 X3.8 Z20.9578 F30
G01 X3.7667 Z20.9771 F30
G01 X3.7333 Z20.9963 F30
G01 X3.7 Z21.0155 F30
G01 X3.6667 Z21.0348 F30
G01 X3.6333 Z21.054 F30
G01 X3.6 Z21.0733 F30
G01 X3.5667 Z21.0925 F30
G01 X3.5333 Z21.1118 F30
G01 X3.5 Z21.131 F30
G01 X3.4667 Z21.1503 F30
G01 X3.4333 Z21.1695 F30
G01 X3.4 Z21.1888 F30
G01 X3.3667 Z21.208 F30
G01 X3.3333 Z21.2272 F30
G01 X3.3 Z21.2465 F30
G01 X3.2667 Z21.2657 F30
G01 X3.2333 Z21.285 F30
G01 X3.2 Z21.3042 F30
G01 X3.1667 Z21.3235 F30
G01 X3.1333 Z21.3427 F30
G01 X3.1 Z21.362 F30
G01 X3.0667 Z21.3812 F30
G01 X3.0333 Z21.4004 F30
G01 X3.0 Z21.4197 F30
G01 X2.9667 Z21.4389 F30
G01 X2.9333 Z21.4582 F30
G01 X2.9 Z21.4774 F30
G01 X2.8667 Z21.4967 F30
G01 X2.8333 Z21.5159 F30
G01 X2.8 Z21.5352 F30
G01 X2.7667 Z21.5544 F30
G01 X2.7333 Z21.5737 F30
G01 X2.7 Z21.5929 F30
G01 X2.6667 Z21.6121 F30
G01 X2.6333 Z21.6314 F30
G01 X2.6 Z21.6506 F30
G01 X2.5667 Z21.6699 F30
G01 X2.5333 Z21.6891 F30
G01 X2.5 Z21.7084 F30
G01 X2.4667 Z21.7276 F30
G01 X2.4333 Z21.7469 F30
G01 X2.4 Z21.7661 F30
G01 X2.3667 Z21.7854 F30
G01 X2.3333 Z21.8046 F30
G01 X2.3 Z21.8238 F30
G01 X2.2667 Z21.8431 F30
G01 X2.2333 Z21.8623 F30
G01 X2.2 Z21.8816 F30
G01 X2.1667 Z21.9008 F30
G01 X2.1333 Z21.9201 F30
G01 X2.1 Z21.9393 F30
G01 X2.0667 Z21.9586 F30
G01 X2.0333 Z21.9778 F30
G01 X2.0 Z21.997 F30
G01 X1.9667 Z22.0163 F30
G01 X1.9333 Z22.0355 F30
G01 X1.9 Z22.0548 F30
G01 X1.8667 Z22.074 F30
G01 X1.8333 Z22.0933 F30
G01 X1.8 Z22.1125 F30
G01 X1.7667 Z22.1318 F30
G01 X1.7333 Z22.151 F30
G01 X1.7 Z22.1703 F30
G01 X1.6667 Z22.1895 F30
G01 X1.6333 Z22.2087 F30
G01 X1.6 Z22.228 F30
G01 X1.5667 Z22.2472 F30
G01 X1.5333 Z22.2665 F30
G01 X1.5 Z22.2857 F30
G01 X1.4667 Z22.305 F30
G01 X1.4333 Z22.3242 F30
G01 X1.4 Z22.3435 F30
G01 X1.3667 Z22.3627 F30
G01 X1.3333 Z22.3819 F30
G01 X1.3 Z22.4012 F30
G01 X1.2667 Z22.4204 F30
G01 X1.2333 Z22.4397 F30
G01 X1.2 Z22.4589 F30
G01 X1.1667 Z22.4782 F30
G01 X1.1333 Z22.4974 F30
G01 X1.1 Z22.5167 F30
G01 X1.0667 Z22.5359 F30
G01 X1.0333 Z22.5552 F30
G01 X1.0 Z22.5744 F30
G01 X0.9667 Z22.5936 F30
G01 X0.9333 Z22.6129 F30
G01 X0.9 Z22.6321 F30
G01 X0.8667 Z22.6514 F30
G01 X0.8333 Z22.6706 F30
G01 X0.8 Z22.6899 F30
G01 X0.7667 Z22.7091 F30
G01 X0.7333 Z22.7284 F30
G01 X0.7 Z22.7476 F30
G01 X0.6667 Z22.7668 F30
G01 X0.6333 Z22.7861 F30
G01 X0.6 Z22.8053 F30
G01 X0.5667 Z22.8246 F30
G01 X0.5333 Z22.8438 F30
G01 X0.5 Z22.8631 F30
G01 X0.4667 Z22.8823 F30
G01 X0.4333 Z22.9016 F30
G01 X0.4 Z22.9208 F30
G01 X0.3667 Z22.9401 F30
G01 X0.3333 Z22.9593 F30
G01 X0.3 Z22.9785 F30
G01 X0.2667 Z22.9978 F30
G01 X0.2333 Z23.017 F30
G01 X0.2 Z23.0363 F30
G01 X0.1667 Z23.0555 F30
G01 X0.1333 Z23.0748 F30
G01 X0.1 Z23.094 F30
G01 X0.0667 Z23.1133 F30
G01 X0.0333 Z23.1325 F30
G01 X0.0 Z23.1517 F30
G01 X0 Z23.171 F30
G01 X0.0333 Z23.1902 F30
G01 X0.0667 Z23.2095 F30
G01 X0.1 Z23.2287 F30
G01 X0.1333 Z23.248 F30
G01 X0.1667 Z23.2672 F30
G01 X0.2 Z23.2865 F30
G01 X0.2333 Z23.3057 F30
G01 X0.2667 Z23.325 F30
G01 X0.3 Z23.3442 F30
G01 X0.3333 Z23.3634 F30
G01 X0.3667 Z23.3827 F30
G01 X0.4 Z23.4019 F30
G01 X0.4333 Z23.4212 F30
G01 X0.4667 Z23.4404 F30
G01 X0.5 Z23.4597 F30
G01 X0.5333 Z23.4789 F30
G01 X0.5667 Z23.4982 F30
G01 X0.6 Z23.5174 F30
G01 X0.6333 Z23.5366 F30
G01 X0.6667 Z23.5559 F30
G01 X0.7 Z23.5751 F30
G01 X0.7333 Z23.5944 F30
G01 X0.7667 Z23.6136 F30
G01 X0.8 Z23.6329 F30
G01 X0.8333 Z23.6521 F30
G01 X0.8667 Z23.6714 F30
G01 X0.9 Z23.6906 F30
G01 X0.9333 Z23.7099 F30
G01 X0.9667 Z23.7291 F30
G01 X1.0 Z23.7483 F30
G01 X1.0333 Z23.7676 F30
G01 X1.0667 Z23.7868 F30
G01 X1.1 Z23.8061 F30
G01 X1.1333 Z23.8253 F30
G01 X1.1667 Z23.8446 F30
G01 X1.2 Z23.8638 F30
G01 X1.2333 Z23.8831 F30
G01 X1.2667 Z23.9023 F30
G01 X1.3 Z23.9215 F30
G01 X1.3333 Z23.9408 F30
G01 X1.3667 Z23.96 F30
G01 X1.4 Z23.9793 F30
G01 X1.4333 Z23.9985 F30
G01 X1.4667 Z24.0178 F30
G01 X1.5 Z24.037 F30
G01 X1.5333 Z24.0563 F30
G01 X1.5667 Z24.0755 F30
G01 X1.6 Z24.0948 F30
G01 X1.6333 Z24.114 F30
G01 X1.6667 Z24.1332 F30
G01 X1.7 Z24.1525 F30
G01 X1.7333 Z24.1717 F30
G01 X1.7667 Z24.191 F30
G01 X1.8 Z24.2102 F30
G01 X1.8333 Z24.2295 F30
G01 X1.8667 Z24.2487 F30
G01 X1.9 Z24.268 F30
G01 X1.9333 Z24.2872 F30
G01 X1.9667 Z24.3064 F30
G01 X2.0 Z24.3257 F30
G01 X2.0333 Z24.3449 F30
G01 X2.0667 Z24.3642 F30
G01 X2.1 Z24.3834 F30
G01 X2.1333 Z24.4027 F30
G01 X2.1667 Z24.4219 F30
G01 X2.2 Z24.4412 F30
G01 X2.2333 Z24.4604 F30
G01 X2.2667 Z24.4797 F30
G01 X2.3 Z24.4989 F30
G01 X2.3333 Z24.5181 F30
G01 X2.3667 Z24.5374 F30
G01 X2.4 Z24.5566 F30
G01 X2.4333 Z24.5759 F30
G01 X2.4667 Z24.5951 F30
G01 X2.5 Z24.6144 F30
G01 X2.5333 Z24.6336 F30
G01 X2.5667 Z24.6529 F30
G01 X2.6 Z24.6721 F30
G01 X2.6333 Z24.6913 F30
G01 X2.6667 Z24.7106 F30
G01 X2.7 Z24.7298 F30
G01 X2.7333 Z24.7491 F30
G01 X2.7667 Z24.7683 F30
G01 X2.8 Z24.7876 F30
G01 X2.8333 Z24.8068 F30
G01 X2.8667 Z24.8261 F30
G01 X2.9 Z24.8453 F30
G01 X2.9333 Z24.8646 F30
G01 X2.9667 Z24.8838 F30
G01 X3.0 Z24.903 F30
G01 X3.0333 Z24.9223 F30
G01 X3.0667 Z24.9415 F30
G01 X3.1 Z24.9608 F30
G01 X3.1333 Z24.98 F30
G01 X3.1667 Z24.9993 F30
G01 X3.2 Z25.0185 F30
G01 X3.2333 Z25.0378 F30
G01 X3.2667 Z25.057 F30
G01 X3.3 Z25.0762 F30
G01 X3.3333 Z25.0955 F30
G01 X3.3667 Z25.1147 F30
G01 X3.4 Z25.134 F30
G01 X3.4333 Z25.1532 F30
G01 X3.4667 Z25.1725 F30
G01 X3.5 Z25.1917 F30
G01 X3.5333 Z25.211 F30
G01 X3.5667 Z25.2302 F30
G01 X3.6 Z25.2495 F30
G01 X3.6333 Z25.2687 F30
G01 X3.6667 Z25.2879 F30
G01 X3.7 Z25.3072 F30
G01 X3.7333 Z25.3264 F30
G01 X3.7667 Z25.3457 F30
G01 X3.8 Z25.3649 F30
G01 X3.8333 Z25.3842 F30
G01 X3.8667 Z25.4034 F30
G01 X3.9 Z25.4227 F30
G01 X3.9333 Z25.4419 F30
G01 X3.9667 Z25.4611 F30
G01 X4.0 Z25.4804 F30
G01 X4.0333 Z25.4996 F30
G01 X4.0667 Z25.5189 F30
G01 X4.1 Z25.5381 F30
G01 X4.1333 Z25.5574 F30
G01 X4.1667 Z25.5766 F30
G01 X4.2 Z25.5959 F30
G01 X4.2333 Z25.6151 F30
G01 X4.2667 Z25.6344 F30
G01 X4.3 Z25.6536 F30
G01 X4.3333 Z25.6728 F30
G01 X4.3667 Z25.6921 F30
G01 X4.4 Z25.7113 F30
G01 X4.4333 Z25.7306 F30
G01 X4.4667 Z25.7498 F30
G01 X4.5 Z25.7691 F30
G01 X4.5333 Z25.7883 F30
G01 X4.5667 Z25.8076 F30
G01 X4.6 Z25.8268 F30
G01 X4.6333 Z25.846 F30
G01 X4.6667 Z25.8653 F30
G01 X4.7 Z25.8845 F30
G01 X4.7333 Z25.9038 F30
G01 X4.7667 Z25.923 F30
G01 X4.8 Z25.9423 F30
G01 X4.8333 Z25.9615 F30
G01 X4.8667 Z25.9808 F30
G01 X4.9 Z26.0 F30
G01 X4.9333 Z26.0193 F30
G01 X4.9667 Z26.0385 F30
G01 X5.0 Z26.0577 F30
G01 X5.0333 Z26.077 F30
G01 X5.0667 Z26.0962 F30
G01 X5.1 Z26.1155 F30
G01 X5.1333 Z26.1347 F30
G01 X5.1667 Z26.154 F30
G01 X5.2 Z26.1732 F30
G01 X5.2333 Z26.1925 F30
G01 X5.2667 Z26.2117 F30
G01 X5.3 Z26.2309 F30
G01 X5.3333 Z26.2502 F30
G01 X5.3667 Z26.2694 F30
G01 X5.4 Z26.2887 F30
G01 X5.4333 Z26.3079 F30
G01 X5.4667 Z26.3272 F30
G01 X5.5 Z26.3464 F30
G01 X5.5333 Z26.3657 F30
G01 X5.5667 Z26.3849 F30
G01 X5.6 Z26.4042 F30
G01 X5.6333 Z26.4234 F30
G01 X5.6667 Z26.4426 F30
G01 X5.7 Z26.4619 F30
G01 X5.7333 Z26.4811 F30
G01 X5.7667 Z26.5004 F30
G01 X5.8 Z26.5196 F30
G01 X5.8333 Z26.5389 F30
G01 X5.8667 Z26.5581 F30
G01 X5.9 Z26.5774 F30
G01 X5.9333 Z26.5966 F30
G01 X5.9667 Z26.6158 F30
G01 X6.0 Z26.6351 F30
G01 X6.0333 Z26.6543 F30
G01 X6.0667 Z26.6736 F30
G01 X6.1 Z26.6928 F30
G01 X6.1333 Z26.7121 F30
G01 X6.1667 Z26.7313 F30
G01 X6.2 Z26.7506 F30
G01 X6.2333 Z26.7698 F30
G01 X6.2667 Z26.7891 F30
G01 X6.3 Z26.8083 F30
G01 X6.3333 Z26.8275 F30
G01 X6.3667 Z26.8468 F30
G01 X6.4 Z26.866 F30
G01 X6.4333 Z26.8853 F30
G01 X6.4667 Z26.9045 F30
G01 X6.5 Z26.9238 F30
G01 X6.5333 Z26.943 F30
G01 X6.5667 Z26.9623 F30
G01 X6.6 Z26.9815 F30
G01 X6.6333 Z27.0007 F30
G01 X6.6667 Z27.02 F30
G01 X6.7 Z27.0392 F30
G01 X6.7333 Z27.0585 F30
G01 X6.7667 Z27.0777 F30
G01 X6.8 Z27.097 F30
G01 X6.8333 Z27.1162 F30
G01 X6.8667 Z27.1355 F30
G01 X6.9 Z27.1547 F30
G01 X6.9333 Z27.174 F30
G01 X6.9667 Z27.1932 F30
G01 X7.0 Z27.2124 F30
G01 X7.0333 Z27.2317 F30
G01 X7.0667 Z27.2509 F30
G01 X7.1 Z27.2702 F30
G01 X7.1333 Z27.2894 F30
G01 X7.1667 Z27.3087 F30
G01 X7.2 Z27.3279 F30
G01 X7.2333 Z27.3472 F30
G01 X7.2667 Z27.3664 F30
G01 X7.3 Z27.3856 F30
G01 X7.3333 Z27.4049 F30
G01 X7.3667 Z27.4241 F30
G01 X7.4 Z27.4434 F30
G01 X7.4333 Z27.4626 F30
G01 X7.4667 Z27.4819 F30
G01 X7.5 Z27.5011 F30
G01 X7.5333 Z27.5204 F30
G01 X7.5667 Z27.5396 F30
G01 X7.6 Z27.5589 F30
G01 X7.6333 Z27.5781 F30
G01 X7.6667 Z27.5973 F30
G01 X7.7 Z27.6166 F30
G01 X7.7333 Z27.6358 F30
G01 X7.7667 Z27.6551 F30
G01 X7.8 Z27.6743 F30
G01 X7.8333 Z27.6936 F30
G01 X7.8667 Z27.7128 F30
G01 X7.9 Z27.7321 F30
G01 X7.9333 Z27.7513 F30
G01 X7.9667 Z27.7705 F30
G01 X8.0 Z27.7898 F30
G01 X8.0333 Z27.809 F30
G01 X8.0667 Z27.8283 F30
G01 X8.1 Z27.8475 F30
G01 X8.1333 Z27.8668 F30
G01 X8.1667 Z27.886 F30
G01 X8.2 Z27.9053 F30
G01 X8.2333 Z27.9245 F30
G01 X8.2667 Z27.9438 F30
G01 X8.3 Z27.963 F30
G01 X8.3333 Z27.9822 F30
G01 X8.3667 Z28.0015 F30
G01 X8.4 Z28.0207 F30
G01 X8.4333 Z28.04 F30
G01 X8.4667 Z28.0592 F30
G01 X8.5 Z28.0785 F30
G01 X8.5333 Z28.0977 F30
G01 X8.5667 Z28.117 F30
G01 X8.6 Z28.1362 F30
G01 X8.6333 Z28.1554 F30
G01 X8.6667 Z28.1747 F30
G01 X8.7 Z28.1939 F30
G01 X8.7333 Z28.2132 F30
G01 X8.7667 Z28.2324 F30
G01 X8.8 Z28.2517 F30
G01 X8.8333 Z28.2709 F30
G01 X8.8667 Z28.2902 F30
G01 X8.9 Z28.3094 F30
G01 X8.9333 Z28.3287 F30
G01 X8.9667 Z28.3479 F30
G01 X9.0 Z28.3671 F30
G01 X9.0333 Z28.3864 F30
G01 X9.0667 Z28.4056 F30
G01 X9.1 Z28.4249 F30
G01 X9.1333 Z28.4441 F30
G01 X9.1667 Z28.4634 F30
G01 X9.2 Z28.4826 F30
G01 X9.2333 Z28.5019 F30
G01 X9.2667 Z28.5211 F30
G01 X9.3 Z28.5403 F30
G01 X9.3333 Z28.5596 F30
G01 X9.3667 Z28.5788 F30
G01 X9.4 Z28.5981 F30
G01 X9.4333 Z28.6173 F30
G01 X9.4667 Z28.6366 F30
G01 X9.5 Z28.6558 F30
G01 X9.5333 Z28.6751 F30
G01 X9.5667 Z28.6943 F30
G01 X9.6 Z28.7136 F30
G01 X9.6333 Z28.7328 F30
G01 X9.6667 Z28.752 F30
G01 X9.7 Z28.7713 F30
G01 X9.7333 Z28.7905 F30
G01 X9.7667 Z28.8098 F30
G01 X9.8 Z28.829 F30
G01 X9.8333 Z28.8483 F30
G01 X9.8667 Z28.8675 F30
G01 X9.9 Z28.8868 F30
G01 X9.9333 Z28.906 F30
G01 X9.9667 Z28.9252 F30
G01 X10.0 Z28.9445 F30
G01 X10.0 Z28.9637 F30
G01 X9.9667 Z28.983 F30
G01 X9.9333 Z29.0022 F30
G01 X9.9 Z29.0215 F30
G01 X9.8667 Z29.0407 F30
G01 X9.8333 Z29.06 F30
G01 X9.8 Z29.0792 F30
G01 X9.7667 Z29.0985 F30
G01 X9.7333 Z29.1177 F30
G01 X9.7 Z29.1369 F30
G01 X9.6667 Z29.1562 F30
G01 X9.6333 Z29.1754 F30
G01 X9.6 Z29.1947 F30
G01 X9.5667 Z29.2139 F30
G01 X9.5333 Z29.2332 F30
G01 X9.5 Z29.2524 F30
G01 X9.4667 Z29.2717 F30
G01 X9.4333 Z29.2909 F30
G01 X9.4 Z29.3101 F30
G01 X9.3667 Z29.3294 F30
G01 X9.3333 Z29.3486 F30
G01 X9.3 Z29.3679 F30
G01 X9.2667 Z29.3871 F30
G01 X9.2333 Z29.4064 F30
G01 X9.2 Z29.4256 F30
G01 X9.1667 Z29.4449 F30
G01 X9.1333 Z29.4641 F30
G01 X9.1 Z29.4834 F30
G01 X9.0667 Z29.5026 F30
G01 X9.0333 Z29.5218 F30
G01 X9.0 Z29.5411 F30
G01 X8.9667 Z29.5603 F30
G01 X8.9333 Z29.5796 F30
G01 X8.9 Z29.5988 F30
G01 X8.8667 Z29.6181 F30
G01 X8.8333 Z29.6373 F30
G01 X8.8 Z29.6566 F30
G01 X8.7667 Z29.6758 F30
G01 X8.7333 Z29.695 F30
G01 X8.7 Z29.7143 F30
G01 X8.6667 Z29.7335 F30
G01 X8.6333 Z29.7528 F30
G01 X8.6 Z29.772 F30
G01 X8.5667 Z29.7913 F30
G01 X8.5333 Z29.8105 F30
G01 X8.5 Z29.8298 F30
G01 X8.4667 Z29.849 F30
G01 X8.4333 Z29.8683 F30
G01 X8.4 Z29.8875 F30
G01 X8.3667 Z29.9067 F30
G01 X8.3333 Z29.926 F30
G01 X8.3 Z29.9452 F30
G01 X8.2667 Z29.9645 F30
G01 X8.2333 Z29.9837 F30
G01 X8.2 Z30.003 F30
G01 X8.1667 Z30.0222 F30
G01 X8.1333 Z30.0415 F30
G01 X8.1 Z30.0607 F30
G01 X8.0667 Z30.0799 F30
G01 X8.0333 Z30.0992 F30
G01 X8.0 Z30.1184 F30
G01 X7.9667 Z30.1377 F30
G01 X7.9333 Z30.1569 F30
G01 X7.9 Z30.1762 F30
G01 X7.8667 Z30.1954 F30
G01 X7.8333 Z30.2147 F30
G01 X7.8 Z30.2339 F30
G01 X7.7667 Z30.2532 F30
G01 X7.7333 Z30.2724 F30
G01 X7.7 Z30.2916 F30
G01 X7.6667 Z30.3109 F30
G01 X7.6333 Z30.3301 F30
G01 X7.6 Z30.3494 F30
G01 X7.5667 Z30.3686 F30
G01 X7.5333 Z30.3879 F30
G01 X7.5 Z30.4071 F30
G01 X7.4667 Z30.4264 F30
G01 X7.4333 Z30.4456 F30
G01 X7.4 Z30.4648 F30
G01 X7.3667 Z30.4841 F30
G01 X7.3333 Z30.5033 F30
G01 X7.3 Z30.5226 F30
G01 X7.2667 Z30.5418 F30
G01 X7.2333 Z30.5611 F30
G01 X7.2 Z30.5803 F30
G01 X7.1667 Z30.5996 F30
G01 X7.1333 Z30.6188 F30
G01 X7.1 Z30.6381 F30
G01 X7.0667 Z30.6573 F30
G01 X7.0333 Z30.6765 F30
G01 X7.0 Z30.6958 F30
G01 X6.9667 Z30.715 F30
G01 X6.9333 Z30.7343 F30
G01 X6.9 Z30.7535 F30
G01 X6.8667 Z30.7728 F30
G01 X6.8333 Z30.792 F30
G01 X6.8 Z30.8113 F30
G01 X6.7667 Z30.8305 F30
G01 X6.7333 Z30.8497 F30
G01 X6.7 Z30.869 F30
G01 X6.6667 Z30.8882 F30
G01 X6.6333 Z30.9075 F30
G01 X6.6 Z30.9267 F30
G01 X6.5667 Z30.946 F30
G01 X6.5333 Z30.9652 F30
G01 X6.5 Z30.9845 F30
G01 X6.4667 Z31.0037 F30
G01 X6.4333 Z31.023 F30
G01 X6.4 Z31.0422 F30
G01 X6.3667 Z31.0614 F30
G01 X6.3333 Z31.0807 F30
G01 X6.3 Z31.0999 F30
G01 X6.2667 Z31.1192 F30
G01 X6.2333 Z31.1384 F30
G01 X6.2 Z31.1577 F30
G01 X6.1667 Z31.1769 F30
G01 X6.1333 Z31.1962 F30
G01 X6.1 Z31.2154 F30
G01 X6.0667 Z31.2346 F30
G01 X6.0333 Z31.2539 F30
G01 X6.0 Z31.2731 F30
G01 X5.9667 Z31.2924 F30
G01 X5.9333 Z31.3116 F30
G01 X5.9 Z31.3309 F30
G01 X5.8667 Z31.3501 F30
G01 X5.8333 Z31.3694 F30
G01 X5.8 Z31.3886 F30
G01 X5.7667 Z31.4079 F30
G01 X5.7333 Z31.4271 F30
G01 X5.7 Z31.4463 F30
G01 X5.6667 Z31.4656 F30
G01 X5.6333 Z31.4848 F30
G01 X5.6 Z31.5041 F30
G01 X5.5667 Z31.5233 F30
G01 X5.5333 Z31.5426 F30
G01 X5.5 Z31.5618 F30
G01 X5.4667 Z31.5811 F30
G01 X5.4333 Z31.6003 F30
G01 X5.4 Z31.6195 F30
G01 X5.3667 Z31.6388 F30
G01 X5.3333 Z31.658 F30
G01 X5.3 Z31.6773 F30
G01 X5.2667 Z31.6965 F30
G01 X5.2333 Z31.7158 F30
G01 X5.2 Z31.735 F30
G01 X5.1667 Z31.7543 F30
G01 X5.1333 Z31.7735 F30
G01 X5.1 Z31.7928 F30
G01 X5.0667 Z31.812 F30
G01 X5.0333 Z31.8312 F30
G01 X5.0 Z31.8505 F30
G01 X4.9667 Z31.8697 F30
G01 X4.9333 Z31.889 F30
G01 X4.9 Z31.9082 F30
G01 X4.8667 Z31.9275 F30
G01 X4.8333 Z31.9467 F30
G01 X4.8 Z31.966 F30
G01 X4.7667 Z31.9852 F30
G01 X4.7333 Z32.0044 F30
G01 X4.7 Z32.0237 F30
G01 X4.6667 Z32.0429 F30
G01 X4.6333 Z32.0622 F30
G01 X4.6 Z32.0814 F30
G01 X4.5667 Z32.1007 F30
G01 X4.5333 Z32.1199 F30
G01 X4.5 Z32.1392 F30
G01 X4.4667 Z32.1584 F30
G01 X4.4333 Z32.1777 F30
G01 X4.4 Z32.1969 F30
G01 X4.3667 Z32.2161 F30
G01 X4.3333 Z32.2354 F30
G01 X4.3 Z32.2546 F30
G01 X4.2667 Z32.2739 F30
G01 X4.2333 Z32.2931 F30
G01 X4.2 Z32.3124 F30
G01 X4.1667 Z32.3316 F30
G01 X4.1333 Z32.3509 F30
G01 X4.1 Z32.3701 F30
G01 X4.0667 Z32.3894 F30
G01 X4.0333 Z32.4086 F30
G01 X4.0 Z32.4278 F30
G01 X3.9667 Z32.4471 F30
G01 X3.9333 Z32.4663 F30
G01 X3.9 Z32.4856 F30
G01 X3.8667 Z32.5048 F30
G01 X3.8333 Z32.5241 F30
G01 X3.8 Z32.5433 F30
G01 X3.7667 Z32.5626 F30
G01 X3.7333 Z32.5818 F30
G01 X3.7 Z32.601 F30
G01 X3.6667 Z32.6203 F30
G01 X3.6333 Z32.6395 F30
G01 X3.6 Z32.6588 F30
G01 X3.5667 Z32.678 F30
G01 X3.5333 Z32.6973 F30
G01 X3.5 Z32.7165 F30
G01 X3.4667 Z32.7358 F30
G01 X3.4333 Z32.755 F30
G01 X3.4 Z32.7743 F30
G01 X3.3667 Z32.7935 F30
G01 X3.3333 Z32.8127 F30
G01 X3.3 Z32.832 F30
G01 X3.2667 Z32.8512 F30
G01 X3.2333 Z32.8705 F30
G01 X3.2 Z32.8897 F30
G01 X3.1667 Z32.909 F30
G01 X3.1333 Z32.9282 F30
G01 X3.1 Z32.9475 F30
G01 X3.0667 Z32.9667 F30
G01 X3.0333 Z32.9859 F30
G01 X3.0 Z33.0052 F30
G01 X2.9667 Z33.0244 F30
G01 X2.9333 Z33.0437 F30
G01 X2.9 Z33.0629 F30
G01 X2.8667 Z33.0822 F30
G01 X2.8333 Z33.1014 F30
G01 X2.8 Z33.1207 F30
G01 X2.7667 Z33.1399 F30
G01 X2.7333 Z33.1592 F30
G01 X2.7 Z33.1784 F30
G01 X2.6667 Z33.1976 F30
G01 X2.6333 Z33.2169 F30
G01 X2.6 Z33.2361 F30
G01 X2.5667 Z33.2554 F30
G01 X2.5333 Z33.2746 F30
G01 X2.5 Z33.2939 F30
G01 X2.4667 Z33.3131 F30
G01 X2.4333 Z33.3324 F30
G01 X2.4 Z33.3516 F30
G01 X2.3667 Z33.3708 F30
G01 X2.3333 Z33.3901 F30
G01 X2.3 Z33.4093 F30
G01 X2.2667 Z33.4286 F30
G01 X2.2333 Z33.4478 F30
G01 X2.2 Z33.4671 F30
G01 X2.1667 Z33.4863 F30
G01 X2.1333 Z33.5056 F30
G01 X2.1 Z33.5248 F30
G01 X2.0667 Z33.5441 F30
G01 X2.0333 Z33.5633 F30
G01 X2.0 Z33.5825 F30
G01 X1.9667 Z33.6018 F30
G01 X1.9333 Z33.621 F30
G01 X1.9 Z33.6403 F30
G01 X1.8667 Z33.6595 F30
G01 X1.8333 Z33.6788 F30
G01 X1.8 Z33.698 F30
G01 X1.7667 Z33.7173 F30
G01 X1.7333 Z33.7365 F30
G01 X1.7 Z33.7557 F30
G01 X1.6667 Z33.775 F30
G01 X1.6333 Z33.7942 F30
G01 X1.6 Z33.8135 F30
G01 X1.5667 Z33.8327 F30
G01 X1.5333 Z33.852 F30
G01 X1.5 Z33.8712 F30
G01 X1.4667 Z33.8905 F30
G01 X1.4333 Z33.9097 F30
G01 X1.4 Z33.929 F30
G01 X1.3667 Z33.9482 F30
G01 X1.3333 Z33.9674 F30
G01 X1.3 Z33.9867 F30
G01 X1.2667 Z34.0059 F30
G01 X1.2333 Z34.0252 F30
G01 X1.2 Z34.0444 F30
G01 X1.1667 Z34.0637 F30
G01 X1.1333 Z34.0829 F30
G01 X1.1 Z34.1022 F30
G01 X1.0667 Z34.1214 F30
G01 X1.0333 Z34.1406 F30
G01 X1.0 Z34.1599 F30
G01 X0.9667 Z34.1791 F30
G01 X0.9333 Z34.1984 F30
G01 X0.9 Z34.2176 F30
G01 X0.8667 Z34.2369 F30
G01 X0.8333 Z34.2561 F30
G01 X0.8 Z34.2754 F30
G01 X0.7667 Z34.2946 F30
G01 X0.7333 Z34.3139 F30
G01 X0.7 Z34.3331 F30
G01 X0.6667 Z34.3523 F30
G01 X0.6333 Z34.3716 F30
G01 X0.6 Z34.3908 F30
G01 X0.5667 Z34.4101 F30
G01 X0.5333 Z34.4293 F30
G01 X0.5 Z34.4486 F30
G01 X0.4667 Z34.4678 F30
G01 X0.4333 Z34.4871 F30
G01 X0.4 Z34.5063 F30
G01 X0.3667 Z34.5255 F30
G01 X0.3333 Z34.5448 F30
G01 X0.3 Z34.564 F30
G01 X0.2667 Z34.5833 F30
G01 X0.2333 Z34.6025 F30
G01 X0.2 Z34.6218 F30
G01 X0.1667 Z34.641 F30
G01 X0.1333 Z34.6603 F30
G01 X0.1 Z34.6795 F30
G01 X0.0667 Z34.6988 F30
G01 X0.0333 Z34.718 F30
G01 X0.0 Z34.7372 F30
G01 X0 Z34.7565 F30
G01 X0.0333 Z34.7757 F30
G01 X0.0667 Z34.795 F30
G01 X0.1 Z34.8142 F30
G01 X0.1333 Z34.8335 F30
G01 X0.1667 Z34.8527 F30
G01 X0.2 Z34.872 F30
G01 X0.2333 Z34.8912 F30
G01 X0.2667 Z34.9104 F30
G01 X0.3 Z34.9297 F30
G01 X0.3333 Z34.9489 F30
G01 X0.3667 Z34.9682 F30
G01 X0.4 Z34.9874 F30
G01 X0.4333 Z35.0067 F30
G01 X0.4667 Z35.0259 F30
G01 X0.5 Z35.0452 F30
G01 X0.5333 Z35.0644 F30
G01 X0.5667 Z35.0837 F30
G01 X0.6 Z35.1029 F30
G01 X0.6333 Z35.1221 F30
G01 X0.6667 Z35.1414 F30
G01 X0.7 Z35.1606 F30
G01 X0.7333 Z35.1799 F30
G01 X0.7667 Z35.1991 F30
G01 X0.8 Z35.2184 F30
G01 X0.8333 Z35.2376 F30
G01 X0.8667 Z35.2569 F30
G01 X0.9 Z35.2761 F30
G01 X0.9333 Z35.2953 F30
G01 X0.9667 Z35.3146 F30
G01 X1.0 Z35.3338 F30
G01 X1.0333 Z35.3531 F30
G01 X1.0667 Z35.3723 F30
G01 X1.1 Z35.3916 F30
G01 X1.1333 Z35.4108 F30
G01 X1.1667 Z35.4301 F30
G01 X1.2 Z35.4493 F30
G01 X1.2333 Z35.4686 F30
G01 X1.2667 Z35.4878 F30
G01 X1.3 Z35.507 F30
G01 X1.3333 Z35.5263 F30
G01 X1.3667 Z35.5455 F30
G01 X1.4 Z35.5648 F30
G01 X1.4333 Z35.584 F30
G01 X1.4667 Z35.6033 F30
G01 X1.5 Z35.6225 F30
G01 X1.5333 Z35.6418 F30
G01 X1.5667 Z35.661 F30
G01 X1.6 Z35.6802 F30
G01 X1.6333 Z35.6995 F30
G01 X1.6667 Z35.7187 F30
G01 X1.7 Z35.738 F30
G01 X1.7333 Z35.7572 F30
G01 X1.7667 Z35.7765 F30
G01 X1.8 Z35.7957 F30
G01 X1.8333 Z35.815 F30
G01 X1.8667 Z35.8342 F30
G01 X1.9 Z35.8535 F30
G01 X1.9333 Z35.8727 F30
G01 X1.9667 Z35.8919 F30
G01 X2.0 Z35.9112 F30
G01 X2.0333 Z35.9304 F30
G01 X2.0667 Z35.9497 F30
G01 X2.1 Z35.9689 F30
G01 X2.1333 Z35.9882 F30
G01 X2.1667 Z36.0074 F30
G01 X2.2 Z36.0267 F30
G01 X2.2333 Z36.0459 F30
G01 X2.2667 Z36.0651 F30
G01 X2.3 Z36.0844 F30
G01 X2.3333 Z36.1036 F30
G01 X2.3667 Z36.1229 F30
G01 X2.4 Z36.1421 F30
G01 X2.4333 Z36.1614 F30
G01 X2.4667 Z36.1806 F30
G01 X2.5 Z36.1999 F30
G01 X2.5333 Z36.2191 F30
G01 X2.5667 Z36.2384 F30
G01 X2.6 Z36.2576 F30
G01 X2.6333 Z36.2768 F30
G01 X2.6667 Z36.2961 F30
G01 X2.7 Z36.3153 F30
G01 X2.7333 Z36.3346 F30
G01 X2.7667 Z36.3538 F30
G01 X2.8 Z36.3731 F30
G01 X2.8333 Z36.3923 F30
G01 X2.8667 Z36.4116 F30
G01 X2.9 Z36.4308 F30
G01 X2.9333 Z36.45 F30
G01 X2.9667 Z36.4693 F30
G01 X3.0 Z36.4885 F30
G01 X3.0333 Z36.5078 F30
G01 X3.0667 Z36.527 F30
G01 X3.1 Z36.5463 F30
G01 X3.1333 Z36.5655 F30
G01 X3.1667 Z36.5848 F30
G01 X3.2 Z36.604 F30
G01 X3.2333 Z36.6233 F30
G01 X3.2667 Z36.6425 F30
G01 X3.3 Z36.6617 F30
G01 X3.3333 Z36.681 F30
G01 X3.3667 Z36.7002 F30
G01 X3.4 Z36.7195 F30
G01 X3.4333 Z36.7387 F30
G01 X3.4667 Z36.758 F30
G01 X3.5 Z36.7772 F30
G01 X3.5333 Z36.7965 F30
G01 X3.5667 Z36.8157 F30
G01 X3.6 Z36.8349 F30
G01 X3.6333 Z36.8542 F30
G01 X3.6667 Z36.8734 F30
G01 X3.7 Z36.8927 F30
G01 X3.7333 Z36.9119 F30
G01 X3.7667 Z36.9312 F30
G01 X3.8 Z36.9504 F30
G01 X3.8333 Z36.9697 F30
G01 X3.8667 Z36.9889 F30
G01 X3.9 Z37.0082 F30
G01 X3.9333 Z37.0274 F30
G01 X3.9667 Z37.0466 F30
G01 X4.0 Z37.0659 F30
G01 X4.0333 Z37.0851 F30
G01 X4.0667 Z37.1044 F30
G01 X4.1 Z37.1236 F30
G01 X4.1333 Z37.1429 F30
G01 X4.1667 Z37.1621 F30
G01 X4.2 Z37.1814 F30
G01 X4.2333 Z37.2006 F30
G01 X4.2667 Z37.2198 F30
G01 X4.3 Z37.2391 F30
G01 X4.3333 Z37.2583 F30
G01 X4.3667 Z37.2776 F30
G01 X4.4 Z37.2968 F30
G01 X4.4333 Z37.3161 F30
G01 X4.4667 Z37.3353 F30
G01 X4.5 Z37.3546 F30
G01 X4.5333 Z37.3738 F30
G01 X4.5667 Z37.3931 F30
G01 X4.6 Z37.4123 F30
G01 X4.6333 Z37.4315 F30
G01 X4.6667 Z37.4508 F30
G01 X4.7 Z37.47 F30
G01 X4.7333 Z37.4893 F30
G01 X4.7667 Z37.5085 F30
G01 X4.8 Z37.5278 F30
G01 X4.8333 Z37.547 F30
G01 X4.8667 Z37.5663 F30
G01 X4.9 Z37.5855 F30
G01 X4.9333 Z37.6047 F30
G01 X4.9667 Z37.624 F30
G01 X5.0 Z37.6432 F30
G01 X5.0333 Z37.6625 F30
G01 X5.0667 Z37.6817 F30
G01 X5.1 Z37.701 F30
G01 X5.1333 Z37.7202 F30
G01 X5.1667 Z37.7395 F30
G01 X5.2 Z37.7587 F30
G01 X5.2333 Z37.778 F30
G01 X5.2667 Z37.7972 F30
G01 X5.3 Z37.8164 F30
G01 X5.3333 Z37.8357 F30
G01 X5.3667 Z37.8549 F30
G01 X5.4 Z37.8742 F30
G01 X5.4333 Z37.8934 F30
G01 X5.4667 Z37.9127 F30
G01 X5.5 Z37.9319 F30
G01 X5.5333 Z37.9512 F30
G01 X5.5667 Z37.9704 F30
G01 X5.6 Z37.9896 F30
G01 X5.6333 Z38.0089 F30
G01 X5.6667 Z38.0281 F30
G01 X5.7 Z38.0474 F30
G01 X5.7333 Z38.0666 F30
G01 X5.7667 Z38.0859 F30
G01 X5.8 Z38.1051 F30
G01 X5.8333 Z38.1244 F30
G01 X5.8667 Z38.1436 F30
G01 X5.9 Z38.1629 F30
G01 X5.9333 Z38.1821 F30
G01 X5.9667 Z38.2013 F30
G01 X6.0 Z38.2206 F30
G01 X6.0333 Z38.2398 F30
G01 X6.0667 Z38.2591 F30
G01 X6.1 Z38.2783 F30
G01 X6.1333 Z38.2976 F30
G01 X6.1667 Z38.3168 F30
G01 X6.2 Z38.3361 F30
G01 X6.2333 Z38.3553 F30
G01 X6.2667 Z38.3745 F30
G01 X6.3 Z38.3938 F30
G01 X6.3333 Z38.413 F30
G01 X6.3667 Z38.4323 F30
G01 X6.4 Z38.4515 F30
G01 X6.4333 Z38.4708 F30
G01 X6.4667 Z38.49 F30
G01 X6.5 Z38.5093 F30
G01 X6.5333 Z38.5285 F30
G01 X6.5667 Z38.5478 F30
G01 X6.6 Z38.567 F30
G01 X6.6333 Z38.5862 F30
G01 X6.6667 Z38.6055 F30
G01 X6.7 Z38.6247 F30
G01 X6.7333 Z38.644 F30
G01 X6.7667 Z38.6632 F30
G01 X6.8 Z38.6825 F30
G01 X6.8333 Z38.7017 F30
G01 X6.8667 Z38.721 F30
G01 X6.9 Z38.7402 F30
G01 X6.9333 Z38.7594 F30
G01 X6.9667 Z38.7787 F30
G01 X7.0 Z38.7979 F30
G01 X7.0333 Z38.8172 F30
G01 X7.0667 Z38.8364 F30
G01 X7.1 Z38.8557 F30
G01 X7.1333 Z38.8749 F30
G01 X7.1667 Z38.8942 F30
G01 X7.2 Z38.9134 F30
G01 X7.2333 Z38.9327 F30
G01 X7.2667 Z38.9519 F30
G01 X7.3 Z38.9711 F30
G01 X7.3333 Z38.9904 F30
G01 X7.3667 Z39.0096 F30
G01 X7.4 Z39.0289 F30
G01 X7.4333 Z39.0481 F30
G01 X7.4667 Z39.0674 F30
G01 X7.5 Z39.0866 F30
G01 X7.5333 Z39.1059 F30
G01 X7.5667 Z39.1251 F30
G01 X7.6 Z39.1443 F30
G01 X7.6333 Z39.1636 F30
G01 X7.6667 Z39.1828 F30
G01 X7.7 Z39.2021 F30
G01 X7.7333 Z39.2213 F30
G01 X7.7667 Z39.2406 F30
G01 X7.8 Z39.2598 F30
G01 X7.8333 Z39.2791 F30
G01 X7.8667 Z39.2983 F30
G01 X7.9 Z39.3176 F30
G01 X7.9333 Z39.3368 F30
G01 X7.9667 Z39.356 F30
G01 X8.0 Z39.3753 F30
G01 X8.0333 Z39.3945 F30
G01 X8.0667 Z39.4138 F30
G01 X8.1 Z39.433 F30
G01 X8.1333 Z39.4523 F30
G01 X8.1667 Z39.4715 F30
G01 X8.2 Z39.4908 F30
G01 X8.2333 Z39.51 F30
G01 X8.2667 Z39.5292 F30
G01 X8.3 Z39.5485 F30
G01 X8.3333 Z39.5677 F30
G01 X8.3667 Z39.587 F30
G01 X8.4 Z39.6062 F30
G01 X8.4333 Z39.6255 F30
G01 X8.4667 Z39.6447 F30
G01 X8.5 Z39.664 F30
G01 X8.5333 Z39.6832 F30
G01 X8.5667 Z39.7025 F30
G01 X8.6 Z39.7217 F30
G01 X8.6333 Z39.7409 F30
G01 X8.6667 Z39.7602 F30
G01 X8.7 Z39.7794 F30
G01 X8.7333 Z39.7987 F30
G01 X8.7667 Z39.8179 F30
G01 X8.8 Z39.8372 F30
G01 X8.8333 Z39.8564 F30
G01 X8.8667 Z39.8757 F30
G01 X8.9 Z39.8949 F30
G01 X8.9333 Z39.9141 F30
G01 X8.9667 Z39.9334 F30
G01 X9.0 Z39.9526 F30
G01 X9.0333 Z39.9719 F30
G01 X9.0667 Z39.9911 F30
G01 X9.1 Z40.0104 F30
G01 X9.1333 Z40.0296 F30
G01 X9.1667 Z40.0489 F30
G01 X9.2 Z40.0681 F30
G01 X9.2333 Z40.0874 F30
G01 X9.2667 Z40.1066 F30
G01 X9.3 Z40.1258 F30
G01 X9.3333 Z40.1451 F30
G01 X9.3667 Z40.1643 F30
G01 X9.4 Z40.1836 F30
G01 X9.4333 Z40.2028 F30
G01 X9.4667 Z40.2221 F30
G01 X9.5 Z40.2413 F30
G01 X9.5333 Z40.2606 F30
G01 X9.5667 Z40.2798 F30
G01 X9.6 Z40.299 F30
G01 X9.6333 Z40.3183 F30
G01 X9.6667 Z40.3375 F30
G01 X9.7 Z40.3568 F30
G01 X9.7333 Z40.376 F30
G01 X9.7667 Z40.3953 F30
G01 X9.8 Z40.4145 F30
G01 X9.8333 Z40.4338 F30
G01 X9.8667 Z40.453 F30
G01 X9.9 Z40.4723 F30
G01 X9.9333 Z40.4915 F30
G01 X9.9667 Z40.5107 F30
G01 X10.0 Z40.53 F30
G01 X10.0 Z40.5492 F30
G01 X9.9667 Z40.5685 F30
G01 X9.9333 Z40.5877 F30
G01 X9.9 Z40.607 F30
G01 X9.8667 Z40.6262 F30
G01 X9.8333 Z40.6455 F30
G01 X9.8 Z40.6647 F30
G01 X9.7667 Z40.6839 F30
G01 X9.7333 Z40.7032 F30
G01 X9.7 Z40.7224 F30
G01 X9.6667 Z40.7417 F30
G01 X9.6333 Z40.7609 F30
G01 X9.6 Z40.7802 F30
G01 X9.5667 Z40.7994 F30
G01 X9.5333 Z40.8187 F30
G01 X9.5 Z40.8379 F30
G01 X9.4667 Z40.8572 F30
G01 X9.4333 Z40.8764 F30
G01 X9.4 Z40.8956 F30
G01 X9.3667 Z40.9149 F30
G01 X9.3333 Z40.9341 F30
G01 X9.3 Z40.9534 F30
G01 X9.2667 Z40.9726 F30
G01 X9.2333 Z40.9919 F30
G01 X9.2 Z41.0111 F30
G01 X9.1667 Z41.0304 F30
G01 X9.1333 Z41.0496 F30
G01 X9.1 Z41.0688 F30
G01 X9.0667 Z41.0881 F30
G01 X9.0333 Z41.1073 F30
G01 X9.0 Z41.1266 F30
G01 X8.9667 Z41.1458 F30
G01 X8.9333 Z41.1651 F30
G01 X8.9 Z41.1843 F30
G01 X8.8667 Z41.2036 F30
G01 X8.8333 Z41.2228 F30
G01 X8.8 Z41.2421 F30
G01 X8.7667 Z41.2613 F30
G01 X8.7333 Z41.2805 F30
G01 X8.7 Z41.2998 F30
G01 X8.6667 Z41.319 F30
G01 X8.6333 Z41.3383 F30
G01 X8.6 Z41.3575 F30
G01 X8.5667 Z41.3768 F30
G01 X8.5333 Z41.396 F30
G01 X8.5 Z41.4153 F30
G01 X8.4667 Z41.4345 F30
G01 X8.4333 Z41.4537 F30
G01 X8.4 Z41.473 F30
G01 X8.3667 Z41.4922 F30
G01 X8.3333 Z41.5115 F30
G01 X8.3 Z41.5307 F30
G01 X8.2667 Z41.55 F30
G01 X8.2333 Z41.5692 F30
G01 X8.2 Z41.5885 F30
G01 X8.1667 Z41.6077 F30
G01 X8.1333 Z41.627 F30
G01 X8.1 Z41.6462 F30
G01 X8.0667 Z41.6654 F30
G01 X8.0333 Z41.6847 F30
G01 X8.0 Z41.7039 F30
G01 X7.9667 Z41.7232 F30
G01 X7.9333 Z41.7424 F30
G01 X7.9 Z41.7617 F30
G01 X7.8667 Z41.7809 F30
G01 X7.8333 Z41.8002 F30
G01 X7.8 Z41.8194 F30
G01 X7.7667 Z41.8386 F30
G01 X7.7333 Z41.8579 F30
G01 X7.7 Z41.8771 F30
G01 X7.6667 Z41.8964 F30
G01 X7.6333 Z41.9156 F30
G01 X7.6 Z41.9349 F30
G01 X7.5667 Z41.9541 F30
G01 X7.5333 Z41.9734 F30
G01 X7.5 Z41.9926 F30
G01 X7.4667 Z42.0119 F30
G01 X7.4333 Z42.0311 F30
G01 X7.4 Z42.0503 F30
G01 X7.3667 Z42.0696 F30
G01 X7.3333 Z42.0888 F30
G01 X7.3 Z42.1081 F30
G01 X7.2667 Z42.1273 F30
G01 X7.2333 Z42.1466 F30
G01 X7.2 Z42.1658 F30
G01 X7.1667 Z42.1851 F30
G01 X7.1333 Z42.2043 F30
G01 X7.1 Z42.2235 F30
G01 X7.0667 Z42.2428 F30
G01 X7.0333 Z42.262 F30
G01 X7.0 Z42.2813 F30
G01 X6.9667 Z42.3005 F30
G01 X6.9333 Z42.3198 F30
G01 X6.9 Z42.339 F30
G01 X6.8667 Z42.3583 F30
G01 X6.8333 Z42.3775 F30
G01 X6.8 Z42.3968 F30
G01 X6.7667 Z42.416 F30
G01 X6.7333 Z42.4352 F30
G01 X6.7 Z42.4545 F30
G01 X6.6667 Z42.4737 F30
G01 X6.6333 Z42.493 F30
G01 X6.6 Z42.5122 F30
G01 X6.5667 Z42.5315 F30
G01 X6.5333 Z42.5507 F30
G01 X6.5 Z42.57 F30
G01 X6.4667 Z42.5892 F30
G01 X6.4333 Z42.6084 F30
G01 X6.4 Z42.6277 F30
G01 X6.3667 Z42.6469 F30
G01 X6.3333 Z42.6662 F30
G01 X6.3 Z42.6854 F30
G01 X6.2667 Z42.7047 F30
G01 X6.2333 Z42.7239 F30
G01 X6.2 Z42.7432 F30
G01 X6.1667 Z42.7624 F30
G01 X6.1333 Z42.7817 F30
G01 X6.1 Z42.8009 F30
G01 X6.0667 Z42.8201 F30
G01 X6.0333 Z42.8394 F30
G01 X6.0 Z42.8586 F30
G01 X5.9667 Z42.8779 F30
G01 X5.9333 Z42.8971 F30
G01 X5.9 Z42.9164 F30
G01 X5.8667 Z42.9356 F30
G01 X5.8333 Z42.9549 F30
G01 X5.8 Z42.9741 F30
G01 X5.7667 Z42.9934 F30
G01 X5.7333 Z43.0126 F30
G01 X5.7 Z43.0318 F30
G01 X5.6667 Z43.0511 F30
G01 X5.6333 Z43.0703 F30
G01 X5.6 Z43.0896 F30
G01 X5.5667 Z43.1088 F30
G01 X5.5333 Z43.1281 F30
G01 X5.5 Z43.1473 F30
G01 X5.4667 Z43.1666 F30
G01 X5.4333 Z43.1858 F30
G01 X5.4 Z43.205 F30
G01 X5.3667 Z43.2243 F30
G01 X5.3333 Z43.2435 F30
G01 X5.3 Z43.2628 F30
G01 X5.2667 Z43.282 F30
G01 X5.2333 Z43.3013 F30
G01 X5.2 Z43.3205 F30
G01 X5.1667 Z43.3398 F30
G01 X5.1333 Z43.359 F30
G01 X5.1 Z43.3783 F30
G01 X5.0667 Z43.3975 F30
G01 X5.0333 Z43.4167 F30
G01 X5.0 Z43.436 F30
G01 X4.9667 Z43.4552 F30
G01 X4.9333 Z43.4745 F30
G01 X4.9 Z43.4937 F30
G01 X4.8667 Z43.513 F30
G01 X4.8333 Z43.5322 F30
G01 X4.8 Z43.5515 F30
G01 X4.7667 Z43.5707 F30
G01 X4.7333 Z43.5899 F30
G01 X4.7 Z43.6092 F30
G01 X4.6667 Z43.6284 F30
G01 X4.6333 Z43.6477 F30
G01 X4.6 Z43.6669 F30
G01 X4.5667 Z43.6862 F30
G01 X4.5333 Z43.7054 F30
G01 X4.5 Z43.7247 F30
G01 X4.4667 Z43.7439 F30
G01 X4.4333 Z43.7632 F30
G01 X4.4 Z43.7824 F30
G01 X4.3667 Z43.8016 F30
G01 X4.3333 Z43.8209 F30
G01 X4.3 Z43.8401 F30
G01 X4.2667 Z43.8594 F30
G01 X4.2333 Z43.8786 F30
G01 X4.2 Z43.8979 F30
G01 X4.1667 Z43.9171 F30
G01 X4.1333 Z43.9364 F30
G01 X4.1 Z43.9556 F30
G01 X4.0667 Z43.9748 F30
G01 X4.0333 Z43.9941 F30
G01 X4.0 Z44.0133 F30
G01 X3.9667 Z44.0326 F30
G01 X3.9333 Z44.0518 F30
G01 X3.9 Z44.0711 F30
G01 X3.8667 Z44.0903 F30
G01 X3.8333 Z44.1096 F30
G01 X3.8 Z44.1288 F30
G01 X3.7667 Z44.1481 F30
G01 X3.7333 Z44.1673 F30
G01 X3.7 Z44.1865 F30
G01 X3.6667 Z44.2058 F30
G01 X3.6333 Z44.225 F30
G01 X3.6 Z44.2443 F30
G01 X3.5667 Z44.2635 F30
G01 X3.5333 Z44.2828 F30
G01 X3.5 Z44.302 F30
G01 X3.4667 Z44.3213 F30
G01 X3.4333 Z44.3405 F30
G01 X3.4 Z44.3597 F30
G01 X3.3667 Z44.379 F30
G01 X3.3333 Z44.3982 F30
G01 X3.3 Z44.4175 F30
G01 X3.2667 Z44.4367 F30
G01 X3.2333 Z44.456 F30
G01 X3.2 Z44.4752 F30
G01 X3.1667 Z44.4945 F30
G01 X3.1333 Z44.5137 F30
G01 X3.1 Z44.533 F30
G01 X3.0667 Z44.5522 F30
G01 X3.0333 Z44.5714 F30
G01 X3.0 Z44.5907 F30
G01 X2.9667 Z44.6099 F30
G01 X2.9333 Z44.6292 F30
G01 X2.9 Z44.6484 F30
G01 X2.8667 Z44.6677 F30
G01 X2.8333 Z44.6869 F30
G01 X2.8 Z44.7062 F30
G01 X2.7667 Z44.7254 F30
G01 X2.7333 Z44.7446 F30
G01 X2.7 Z44.7639 F30
G01 X2.6667 Z44.7831 F30
G01 X2.6333 Z44.8024 F30
G01 X2.6 Z44.8216 F30
G01 X2.5667 Z44.8409 F30
G01 X2.5333 Z44.8601 F30
G01 X2.5 Z44.8794 F30
G01 X2.4667 Z44.8986 F30
G01 X2.4333 Z44.9179 F30
G01 X2.4 Z44.9371 F30
G01 X2.3667 Z44.9563 F30
G01 X2.3333 Z44.9756 F30
G01 X2.3 Z44.9948 F30
G01 X2.2667 Z45.0141 F30
G01 X2.2333 Z45.0333 F30
G01 X2.2 Z45.0526 F30
G01 X2.1667 Z45.0718 F30
G01 X2.1333 Z45.0911 F30
G01 X2.1 Z45.1103 F30
G01 X2.0667 Z45.1295 F30
G01 X2.0333 Z45.1488 F30
G01 X2.0 Z45.168 F30
G01 X1.9667 Z45.1873 F30
G01 X1.9333 Z45.2065 F30
G01 X1.9 Z45.2258 F30
G01 X1.8667 Z45.245 F30
G01 X1.8333 Z45.2643 F30
G01 X1.8 Z45.2835 F30
G01 X1.7667 Z45.3028 F30
G01 X1.7333 Z45.322 F30
G01 X1.7 Z45.3412 F30
G01 X1.6667 Z45.3605 F30
G01 X1.6333 Z45.3797 F30
G01 X1.6 Z45.399 F30
G01 X1.5667 Z45.4182 F30
G01 X1.5333 Z45.4375 F30
G01 X1.5 Z45.4567 F30
G01 X1.4667 Z45.476 F30
G01 X1.4333 Z45.4952 F30
G01 X1.4 Z45.5144 F30
G01 X1.3667 Z45.5337 F30
G01 X1.3333 Z45.5529 F30
G01 X1.3 Z45.5722 F30
G01 X1.2667 Z45.5914 F30
G01 X1.2333 Z45.6107 F30
G01 X1.2 Z45.6299 F30
G01 X1.1667 Z45.6492 F30
G01 X1.1333 Z45.6684 F30
G01 X1.1 Z45.6877 F30
G01 X1.0667 Z45.7069 F30
G01 X1.0333 Z45.7261 F30
G01 X1.0 Z45.7454 F30
G01 X0.9667 Z45.7646 F30
G01 X0.9333 Z45.7839 F30
G01 X0.9 Z45.8031 F30
G01 X0.8667 Z45.8224 F30
G01 X0.8333 Z45.8416 F30
G01 X0.8 Z45.8609 F30
G01 X0.7667 Z45.8801 F30
G01 X0.7333 Z45.8993 F30
G01 X0.7 Z45.9186 F30
G01 X0.6667 Z45.9378 F30
G01 X0.6333 Z45.9571 F30
G01 X0.6 Z45.9763 F30
G01 X0.5667 Z45.9956 F30
G01 X0.5333 Z46.0148 F30
G01 X0.5 Z46.0341 F30
G01 X0.4667 Z46.0533 F30
G01 X0.4333 Z46.0726 F30
G01 X0.4 Z46.0918 F30
G01 X0.3667 Z46.111 F30
G01 X0.3333 Z46.1303 F30
G01 X0.3 Z46.1495 F30
G01 X0.2667 Z46.1688 F30
G01 X0.2333 Z46.188 F30
G01 X0.2 Z46.2073 F30
G01 X0.1667 Z46.2265 F30
G01 X0.1333 Z46.2458 F30
G01 X0.1 Z46.265 F30
G01 X0.0667 Z46.2842 F30
G01 X0.0333 Z46.3035 F30
G01 X0.0 Z46.3227 F30
G01 X0 Z46.342 F30
G01 X0.0333 Z46.3612 F30
G01 X0.0667 Z46.3805 F30
G01 X0.1 Z46.3997 F30
G01 X0.1333 Z46.419 F30
G01 X0.1667 Z46.4382 F30
G01 X0.2 Z46.4575 F30
G01 X0.2333 Z46.4767 F30
G01 X0.2667 Z46.4959 F30
G01 X0.3 Z46.5152 F30
G01 X0.3333 Z46.5344 F30
G01 X0.3667 Z46.5537 F30
G01 X0.4 Z46.5729 F30
G01 X0.4333 Z46.5922 F30
G01 X0.4667 Z46.6114 F30
G01 X0.5 Z46.6307 F30
G01 X0.5333 Z46.6499 F30
G01 X0.5667 Z46.6691 F30
G01 X0.6 Z46.6884 F30
G01 X0.6333 Z46.7076 F30
G01 X0.6667 Z46.7269 F30
G01 X0.7 Z46.7461 F30
G01 X0.7333 Z46.7654 F30
G01 X0.7667 Z46.7846 F30
G01 X0.8 Z46.8039 F30
G01 X0.8333 Z46.8231 F30
G01 X0.8667 Z46.8424 F30
G01 X0.9 Z46.8616 F30
G01 X0.9333 Z46.8808 F30
G01 X0.9667 Z46.9001 F30
G01 X1.0 Z46.9193 F30
G01 X1.0333 Z46.9386 F30
G01 X1.0667 Z46.9578 F30
G01 X1.1 Z46.9771 F30
G01 X1.1333 Z46.9963 F30
G01 X1.1667 Z47.0156 F30
G01 X1.2 Z47.0348 F30
G01 X1.2333 Z47.054 F30
G01 X1.2667 Z47.0733 F30
G01 X1.3 Z47.0925 F30
G01 X1.3333 Z47.1118 F30
G01 X1.3667 Z47.131 F30
G01 X1.4 Z47.1503 F30
G01 X1.4333 Z47.1695 F30
G01 X1.4667 Z47.1888 F30
G01 X1.5 Z47.208 F30
G01 X1.5333 Z47.2273 F30
G01 X1.5667 Z47.2465 F30
G01 X1.6 Z47.2657 F30
G01 X1.6333 Z47.285 F30
G01 X1.6667 Z47.3042 F30
G01 X1.7 Z47.3235 F30
G01 X1.7333 Z47.3427 F30
G01 X1.7667 Z47.362 F30
G01 X1.8 Z47.3812 F30
G01 X1.8333 Z47.4005 F30
G01 X1.8667 Z47.4197 F30
G01 X1.9 Z47.4389 F30
G01 X1.9333 Z47.4582 F30
G01 X1.9667 Z47.4774 F30
G01 X2.0 Z47.4967 F30
G01 X2.0333 Z47.5159 F30
G01 X2.0667 Z47.5352 F30
G01 X2.1 Z47.5544 F30
G01 X2.1333 Z47.5737 F30
G01 X2.1667 Z47.5929 F30
G01 X2.2 Z47.6122 F30
G01 X2.2333 Z47.6314 F30
G01 X2.2667 Z47.6506 F30
G01 X2.3 Z47.6699 F30
G01 X2.3333 Z47.6891 F30
G01 X2.3667 Z47.7084 F30
G01 X2.4 Z47.7276 F30
G01 X2.4333 Z47.7469 F30
G01 X2.4667 Z47.7661 F30
G01 X2.5 Z47.7854 F30
G01 X2.5333 Z47.8046 F30
G01 X2.5667 Z47.8238 F30
G01 X2.6 Z47.8431 F30
G01 X2.6333 Z47.8623 F30
G01 X2.6667 Z47.8816 F30
G01 X2.7 Z47.9008 F30
G01 X2.7333 Z47.9201 F30
G01 X2.7667 Z47.9393 F30
G01 X2.8 Z47.9586 F30
G01 X2.8333 Z47.9778 F30
G01 X2.8667 Z47.9971 F30
G01 X2.9 Z48.0163 F30
G01 X2.9333 Z48.0355 F30
G01 X2.9667 Z48.0548 F30
G01 X3.0 Z48.074 F30
G01 X3.0333 Z48.0933 F30
G01 X3.0667 Z48.1125 F30
G01 X3.1 Z48.1318 F30
G01 X3.1333 Z48.151 F30
G01 X3.1667 Z48.1703 F30
G01 X3.2 Z48.1895 F30
G01 X3.2333 Z48.2087 F30
G01 X3.2667 Z48.228 F30
G01 X3.3 Z48.2472 F30
G01 X3.3333 Z48.2665 F30
G01 X3.3667 Z48.2857 F30
G01 X3.4 Z48.305 F30
G01 X3.4333 Z48.3242 F30
G01 X3.4667 Z48.3435 F30
G01 X3.5 Z48.3627 F30
G01 X3.5333 Z48.382 F30
G01 X3.5667 Z48.4012 F30
G01 X3.6 Z48.4204 F30
G01 X3.6333 Z48.4397 F30
G01 X3.6667 Z48.4589 F30
G01 X3.7 Z48.4782 F30
G01 X3.7333 Z48.4974 F30
G01 X3.7667 Z48.5167 F30
G01 X3.8 Z48.5359 F30
G01 X3.8333 Z48.5552 F30
G01 X3.8667 Z48.5744 F30
G01 X3.9 Z48.5936 F30
G01 X3.9333 Z48.6129 F30
G01 X3.9667 Z48.6321 F30
G01 X4.0 Z48.6514 F30
G01 X4.0333 Z48.6706 F30
G01 X4.0667 Z48.6899 F30
G01 X4.1 Z48.7091 F30
G01 X4.1333 Z48.7284 F30
G01 X4.1667 Z48.7476 F30
G01 X4.2 Z48.7669 F30
G01 X4.2333 Z48.7861 F30
G01 X4.2667 Z48.8053 F30
G01 X4.3 Z48.8246 F30
G01 X4.3333 Z48.8438 F30
G01 X4.3667 Z48.8631 F30
G01 X4.4 Z48.8823 F30
G01 X4.4333 Z48.9016 F30
G01 X4.4667 Z48.9208 F30
G01 X4.5 Z48.9401 F30
G01 X4.5333 Z48.9593 F30
G01 X4.5667 Z48.9785 F30
G01 X4.6 Z48.9978 F30
G01 X4.6333 Z49.017 F30
G01 X4.6667 Z49.0363 F30
G01 X4.7 Z49.0555 F30
G01 X4.7333 Z49.0748 F30
G01 X4.7667 Z49.094 F30
G01 X4.8 Z49.1133 F30
G01 X4.8333 Z49.1325 F30
G01 X4.8667 Z49.1518 F30
G01 X4.9 Z49.171 F30
G01 X4.9333 Z49.1902 F30
G01 X4.9667 Z49.2095 F30
G01 X5.0 Z49.2287 F30
G01 X5.0333 Z49.248 F30
G01 X5.0667 Z49.2672 F30
G01 X5.1 Z49.2865 F30
G01 X5.1333 Z49.3057 F30
G01 X5.1667 Z49.325 F30
G01 X5.2 Z49.3442 F30
G01 X5.2333 Z49.3634 F30
G01 X5.2667 Z49.3827 F30
G01 X5.3 Z49.4019 F30
G01 X5.3333 Z49.4212 F30
G01 X5.3667 Z49.4404 F30
G01 X5.4 Z49.4597 F30
G01 X5.4333 Z49.4789 F30
G01 X5.4667 Z49.4982 F30
G01 X5.5 Z49.5174 F30
G01 X5.5333 Z49.5367 F30
G01 X5.5667 Z49.5559 F30
G01 X5.6 Z49.5751 F30
G01 X5.6333 Z49.5944 F30
G01 X5.6667 Z49.6136 F30
G01 X5.7 Z49.6329 F30
G01 X5.7333 Z49.6521 F30
G01 X5.7667 Z49.6714 F30
G01 X5.8 Z49.6906 F30
G01 X5.8333 Z49.7099 F30
G01 X5.8667 Z49.7291 F30
G01 X5.9 Z49.7483 F30
G01 X5.9333 Z49.7676 F30
G01 X5.9667 Z49.7868 F30
G01 X6.0 Z49.8061 F30
G01 X6.0333 Z49.8253 F30
G01 X6.0667 Z49.8446 F30
G01 X6.1 Z49.8638 F30
G01 X6.1333 Z49.8831 F30
G01 X6.1667 Z49.9023 F30
G01 X6.2 Z49.9216 F30
G01 X6.2333 Z49.9408 F30
G01 X6.2667 Z49.96 F30
G01 X6.3 Z49.9793 F30
G01 X6.3333 Z49.9985 F30
G01 X6.3667 Z50.0178 F30
G01 X6.4 Z50.037 F30
G01 X6.4333 Z50.0563 F30
G01 X6.4667 Z50.0755 F30
G01 X6.5 Z50.0948 F30
G01 X6.5333 Z50.114 F30
G01 X6.5667 Z50.1332 F30
G01 X6.6 Z50.1525 F30
G01 X6.6333 Z50.1717 F30
G01 X6.6667 Z50.191 F30
G01 X6.7 Z50.2102 F30
G01 X6.7333 Z50.2295 F30
G01 X6.7667 Z50.2487 F30
G01 X6.8 Z50.268 F30
G01 X6.8333 Z50.2872 F30
G01 X6.8667 Z50.3065 F30
G01 X6.9 Z50.3257 F30
G01 X6.9333 Z50.3449 F30
G01 X6.9667 Z50.3642 F30
G01 X7.0 Z50.3834 F30
G01 X7.0333 Z50.4027 F30
G01 X7.0667 Z50.4219 F30
G01 X7.1 Z50.4412 F30
G01 X7.1333 Z50.4604 F30
G01 X7.1667 Z50.4797 F30
G01 X7.2 Z50.4989 F30
G01 X7.2333 Z50.5181 F30
G01 X7.2667 Z50.5374 F30
G01 X7.3 Z50.5566 F30
G01 X7.3333 Z50.5759 F30
G01 X7.3667 Z50.5951 F30
G01 X7.4 Z50.6144 F30
G01 X7.4333 Z50.6336 F30
G01 X7.4667 Z50.6529 F30
G01 X7.5 Z50.6721 F30
G01 X7.5333 Z50.6914 F30
G01 X7.5667 Z50.7106 F30
G01 X7.6 Z50.7298 F30
G01 X7.6333 Z50.7491 F30
G01 X7.6667 Z50.7683 F30
G01 X7.7 Z50.7876 F30
G01 X7.7333 Z50.8068 F30
G01 X7.7667 Z50.8261 F30
G01 X7.8 Z50.8453 F30
G01 X7.8333 Z50.8646 F30
G01 X7.8667 Z50.8838 F30
G01 X7.9 Z50.903 F30
G01 X7.9333 Z50.9223 F30
G01 X7.9667 Z50.9415 F30
G01 X8.0 Z50.9608 F30
G01 X8.0333 Z50.98 F30
G01 X8.0667 Z50.9993 F30
G01 X8.1 Z51.0185 F30
G01 X8.1333 Z51.0378 F30
G01 X8.1667 Z51.057 F30
G01 X8.2 Z51.0763 F30
G01 X8.2333 Z51.0955 F30
G01 X8.2667 Z51.1147 F30
G01 X8.3 Z51.134 F30
G01 X8.3333 Z51.1532 F30
G01 X8.3667 Z51.1725 F30
G01 X8.4 Z51.1917 F30
G01 X8.4333 Z51.211 F30
G01 X8.4667 Z51.2302 F30
G01 X8.5 Z51.2495 F30
G01 X8.5333 Z51.2687 F30
G01 X8.5667 Z51.2879 F30
G01 X8.6 Z51.3072 F30
G01 X8.6333 Z51.3264 F30
G01 X8.6667 Z51.3457 F30
G01 X8.7 Z51.3649 F30
G01 X8.7333 Z51.3842 F30
G01 X8.7667 Z51.4034 F30
G01 X8.8 Z51.4227 F30
G01 X8.8333 Z51.4419 F30
G01 X8.8667 Z51.4612 F30
G01 X8.9 Z51.4804 F30
G01 X8.9333 Z51.4996 F30
G01 X8.9667 Z51.5189 F30
G01 X9.0 Z51.5381 F30
G01 X9.0333 Z51.5574 F30
G01 X9.0667 Z51.5766 F30
G01 X9.1 Z51.5959 F30
G01 X9.1333 Z51.6151 F30
G01 X9.1667 Z51.6344 F30
G01 X9.2 Z51.6536 F30
G01 X9.2333 Z51.6728 F30
G01 X9.2667 Z51.6921 F30
G01 X9.3 Z51.7113 F30
G01 X9.3333 Z51.7306 F30
G01 X9.3667 Z51.7498 F30
G01 X9.4 Z51.7691 F30
G01 X9.4333 Z51.7883 F30
G01 X9.4667 Z51.8076 F30
G01 X9.5 Z51.8268 F30
G01 X9.5333 Z51.8461 F30
G01 X9.5667 Z51.8653 F30
G01 X9.6 Z51.8845 F30
G01 X9.6333 Z51.9038 F30
G01 X9.6667 Z51.923 F30
G01 X9.7 Z51.9423 F30
G01 X9.7333 Z51.9615 F30
G01 X9.7667 Z51.9808 F30
G01 X9.8 Z52.0 F30
G01 X9.8333 Z52.0193 F30
G01 X9.8667 Z52.0385 F30
G01 X9.9 Z52.0577 F30
G01 X9.9333 Z52.077 F30
G01 X9.9667 Z52.0962 F30
G01 X10.0 Z52.1155 F30
G01 X10.0 Z52.1347 F30
G01 X9.9667 Z52.154 F30
G01 X9.9333 Z52.1732 F30
G01 X9.9 Z52.1925 F30
G01 X9.8667 Z52.2117 F30
G01 X9.8333 Z52.231 F30
G01 X9.8 Z52.2502 F30
G01 X9.7667 Z52.2694 F30
G01 X9.7333 Z52.2887 F30
G01 X9.7 Z52.3079 F30
G01 X9.6667 Z52.3272 F30
G01 X9.6333 Z52.3464 F30
G01 X9.6 Z52.3657 F30
G01 X9.5667 Z52.3849 F30
G01 X9.5333 Z52.4042 F30
G01 X9.5 Z52.4234 F30
G01 X9.4667 Z52.4426 F30
G01 X9.4333 Z52.4619 F30
G01 X9.4 Z52.4811 F30
G01 X9.3667 Z52.5004 F30
G01 X9.3333 Z52.5196 F30
G01 X9.3 Z52.5389 F30
G01 X9.2667 Z52.5581 F30
G01 X9.2333 Z52.5774 F30
G01 X9.2 Z52.5966 F30
G01 X9.1667 Z52.6159 F30
G01 X9.1333 Z52.6351 F30
G01 X9.1 Z52.6543 F30
G01 X9.0667 Z52.6736 F30
G01 X9.0333 Z52.6928 F30
G01 X9.0 Z52.7121 F30
G01 X8.9667 Z52.7313 F30
G01 X8.9333 Z52.7506 F30
G01 X8.9 Z52.7698 F30
G01 X8.8667 Z52.7891 F30
G01 X8.8333 Z52.8083 F30
G01 X8.8 Z52.8275 F30
G01 X8.7667 Z52.8468 F30
G01 X8.7333 Z52.866 F30
G01 X8.7 Z52.8853 F30
G01 X8.6667 Z52.9045 F30
G01 X8.6333 Z52.9238 F30
G01 X8.6 Z52.943 F30
G01 X8.5667 Z52.9623 F30
G01 X8.5333 Z52.9815 F30
G01 X8.5 Z53.0008 F30
G01 X8.4667 Z53.02 F30
G01 X8.4333 Z53.0392 F30
G01 X8.4 Z53.0585 F30
G01 X8.3667 Z53.0777 F30
G01 X8.3333 Z53.097 F30
G01 X8.3 Z53.1162 F30
G01 X8.2667 Z53.1355 F30
G01 X8.2333 Z53.1547 F30
G01 X8.2 Z53.174 F30
G01 X8.1667 Z53.1932 F30
G01 X8.1333 Z53.2124 F30
G01 X8.1 Z53.2317 F30
G01 X8.0667 Z53.2509 F30
G01 X8.0333 Z53.2702 F30
G01 X8.0 Z53.2894 F30
G01 X7.9667 Z53.3087 F30
G01 X7.9333 Z53.3279 F30
G01 X7.9 Z53.3472 F30
G01 X7.8667 Z53.3664 F30
G01 X7.8333 Z53.3857 F30
G01 X7.8 Z53.4049 F30
G01 X7.7667 Z53.4241 F30
G01 X7.7333 Z53.4434 F30
G01 X7.7 Z53.4626 F30
G01 X7.6667 Z53.4819 F30
G01 X7.6333 Z53.5011 F30
G01 X7.6 Z53.5204 F30
G01 X7.5667 Z53.5396 F30
G01 X7.5333 Z53.5589 F30
G01 X7.5 Z53.5781 F30
G01 X7.4667 Z53.5973 F30
G01 X7.4333 Z53.6166 F30
G01 X7.4 Z53.6358 F30
G01 X7.3667 Z53.6551 F30
G01 X7.3333 Z53.6743 F30
G01 X7.3 Z53.6936 F30
G01 X7.2667 Z53.7128 F30
G01 X7.2333 Z53.7321 F30
G01 X7.2 Z53.7513 F30
G01 X7.1667 Z53.7706 F30
G01 X7.1333 Z53.7898 F30
G01 X7.1 Z53.809 F30
G01 X7.0667 Z53.8283 F30
G01 X7.0333 Z53.8475 F30
G01 X7.0 Z53.8668 F30
G01 X6.9667 Z53.886 F30
G01 X6.9333 Z53.9053 F30
G01 X6.9 Z53.9245 F30
G01 X6.8667 Z53.9438 F30
G01 X6.8333 Z53.963 F30
G01 X6.8 Z53.9823 F30
G01 X6.7667 Z54.0015 F30
G01 X6.7333 Z54.0207 F30
G01 X6.7 Z54.04 F30
G01 X6.6667 Z54.0592 F30
G01 X6.6333 Z54.0785 F30
G01 X6.6 Z54.0977 F30
G01 X6.5667 Z54.117 F30
G01 X6.5333 Z54.1362 F30
G01 X6.5 Z54.1555 F30
G01 X6.4667 Z54.1747 F30
G01 X6.4333 Z54.1939 F30
G01 X6.4 Z54.2132 F30
G01 X6.3667 Z54.2324 F30
G01 X6.3333 Z54.2517 F30
G01 X6.3 Z54.2709 F30
G01 X6.2667 Z54.2902 F30
G01 X6.2333 Z54.3094 F30
G01 X6.2 Z54.3287 F30
G01 X6.1667 Z54.3479 F30
G01 X6.1333 Z54.3672 F30
G01 X6.1 Z54.3864 F30
G01 X6.0667 Z54.4056 F30
G01 X6.0333 Z54.4249 F30
G01 X6.0 Z54.4441 F30
G01 X5.9667 Z54.4634 F30
G01 X5.9333 Z54.4826 F30
G01 X5.9 Z54.5019 F30
G01 X5.8667 Z54.5211 F30
G01 X5.8333 Z54.5404 F30
G01 X5.8 Z54.5596 F30
G01 X5.7667 Z54.5788 F30
G01 X5.7333 Z54.5981 F30
G01 X5.7 Z54.6173 F30
G01 X5.6667 Z54.6366 F30
G01 X5.6333 Z54.6558 F30
G01 X5.6 Z54.6751 F30
G01 X5.5667 Z54.6943 F30
G01 X5.5333 Z54.7136 F30
G01 X5.5 Z54.7328 F30
G01 X5.4667 Z54.7521 F30
G01 X5.4333 Z54.7713 F30
G01 X5.4 Z54.7905 F30
G01 X5.3667 Z54.8098 F30
G01 X5.3333 Z54.829 F30
G01 X5.3 Z54.8483 F30
G01 X5.2667 Z54.8675 F30
G01 X5.2333 Z54.8868 F30
G01 X5.2 Z54.906 F30
G01 X5.1667 Z54.9253 F30
G01 X5.1333 Z54.9445 F30
G01 X5.1 Z54.9637 F30
G01 X5.0667 Z54.983 F30
G01 X5.0333 Z55.0022 F30
G01 X5.0 Z55.0215 F30
G01 X4.9667 Z55.0407 F30
G01 X4.9333 Z55.06 F30
G01 X4.9 Z55.0792 F30
G01 X4.8667 Z55.0985 F30
G01 X4.8333 Z55.1177 F30
G01 X4.8 Z55.137 F30
G01 X4.7667 Z55.1562 F30
G01 X4.7333 Z55.1754 F30
G01 X4.7 Z55.1947 F30
G01 X4.6667 Z55.2139 F30
G01 X4.6333 Z55.2332 F30
G01 X4.6 Z55.2524 F30
G01 X4.5667 Z55.2717 F30
G01 X4.5333 Z55.2909 F30
G01 X4.5 Z55.3102 F30
G01 X4.4667 Z55.3294 F30
G01 X4.4333 Z55.3486 F30
G01 X4.4 Z55.3679 F30
G01 X4.3667 Z55.3871 F30
G01 X4.3333 Z55.4064 F30
G01 X4.3 Z55.4256 F30
G01 X4.2667 Z55.4449 F30
G01 X4.2333 Z55.4641 F30
G01 X4.2 Z55.4834 F30
G01 X4.1667 Z55.5026 F30
G01 X4.1333 Z55.5219 F30
G01 X4.1 Z55.5411 F30
G01 X4.0667 Z55.5603 F30
G01 X4.0333 Z55.5796 F30
G01 X4.0 Z55.5988 F30
G01 X3.9667 Z55.6181 F30
G01 X3.9333 Z55.6373 F30
G01 X3.9 Z55.6566 F30
G01 X3.8667 Z55.6758 F30
G01 X3.8333 Z55.6951 F30
G01 X3.8 Z55.7143 F30
G01 X3.7667 Z55.7335 F30
G01 X3.7333 Z55.7528 F30
G01 X3.7 Z55.772 F30
G01 X3.6667 Z55.7913 F30
G01 X3.6333 Z55.8105 F30
G01 X3.6 Z55.8298 F30
G01 X3.5667 Z55.849 F30
G01 X3.5333 Z55.8683 F30
G01 X3.5 Z55.8875 F30
G01 X3.4667 Z55.9068 F30
G01 X3.4333 Z55.926 F30
G01 X3.4 Z55.9452 F30
G01 X3.3667 Z55.9645 F30
G01 X3.3333 Z55.9837 F30
G01 X3.3 Z56.003 F30
G01 X3.2667 Z56.0222 F30
G01 X3.2333 Z56.0415 F30
G01 X3.2 Z56.0607 F30
G01 X3.1667 Z56.08 F30
G01 X3.1333 Z56.0992 F30
G01 X3.1 Z56.1184 F30
G01 X3.0667 Z56.1377 F30
G01 X3.0333 Z56.1569 F30
G01 X3.0 Z56.1762 F30
G01 X2.9667 Z56.1954 F30
G01 X2.9333 Z56.2147 F30
G01 X2.9 Z56.2339 F30
G01 X2.8667 Z56.2532 F30
G01 X2.8333 Z56.2724 F30
G01 X2.8 Z56.2917 F30
G01 X2.7667 Z56.3109 F30
G01 X2.7333 Z56.3301 F30
G01 X2.7 Z56.3494 F30
G01 X2.6667 Z56.3686 F30
G01 X2.6333 Z56.3879 F30
G01 X2.6 Z56.4071 F30
G01 X2.5667 Z56.4264 F30
G01 X2.5333 Z56.4456 F30
G01 X2.5 Z56.4649 F30
G01 X2.4667 Z56.4841 F30
G01 X2.4333 Z56.5033 F30
G01 X2.4 Z56.5226 F30
G01 X2.3667 Z56.5418 F30
G01 X2.3333 Z56.5611 F30
G01 X2.3 Z56.5803 F30
G01 X2.2667 Z56.5996 F30
G01 X2.2333 Z56.6188 F30
G01 X2.2 Z56.6381 F30
G01 X2.1667 Z56.6573 F30
G01 X2.1333 Z56.6766 F30
G01 X2.1 Z56.6958 F30
G01 X2.0667 Z56.715 F30
G01 X2.0333 Z56.7343 F30
G01 X2.0 Z56.7535 F30
G01 X1.9667 Z56.7728 F30
G01 X1.9333 Z56.792 F30
G01 X1.9 Z56.8113 F30
G01 X1.8667 Z56.8305 F30
G01 X1.8333 Z56.8498 F30
G01 X1.8 Z56.869 F30
G01 X1.7667 Z56.8882 F30
G01 X1.7333 Z56.9075 F30
G01 X1.7 Z56.9267 F30
G01 X1.6667 Z56.946 F30
G01 X1.6333 Z56.9652 F30
G01 X1.6 Z56.9845 F30
G01 X1.5667 Z57.0037 F30
G01 X1.5333 Z57.023 F30
G01 X1.5 Z57.0422 F30
G01 X1.4667 Z57.0615 F30
G01 X1.4333 Z57.0807 F30
G01 X1.4 Z57.0999 F30
G01 X1.3667 Z57.1192 F30
G01 X1.3333 Z57.1384 F30
G01 X1.3 Z57.1577 F30
G01 X1.2667 Z57.1769 F30
G01 X1.2333 Z57.1962 F30
G01 X1.2 Z57.2154 F30
G01 X1.1667 Z57.2347 F30
G01 X1.1333 Z57.2539 F30
G01 X1.1 Z57.2731 F30
G01 X1.0667 Z57.2924 F30
G01 X1.0333 Z57.3116 F30
G01 X1.0 Z57.3309 F30
G01 X0.9667 Z57.3501 F30
G01 X0.9333 Z57.3694 F30
G01 X0.9 Z57.3886 F30
G01 X0.8667 Z57.4079 F30
G01 X0.8333 Z57.4271 F30
G01 X0.8 Z57.4464 F30
G01 X0.7667 Z57.4656 F30
G01 X0.7333 Z57.4848 F30
G01 X0.7 Z57.5041 F30
G01 X0.6667 Z57.5233 F30
G01 X0.6333 Z57.5426 F30
G01 X0.6 Z57.5618 F30
G01 X0.5667 Z57.5811 F30
G01 X0.5333 Z57.6003 F30
G01 X0.5 Z57.6196 F30
G01 X0.4667 Z57.6388 F30
G01 X0.4333 Z57.658 F30
G01 X0.4 Z57.6773 F30
G01 X0.3667 Z57.6965 F30
G01 X0.3333 Z57.7158 F30
G01 X0.3 Z57.735 F30
